id,stationName,availableDocks,totalDocks,latitude,longitude,statusValue,statusKey,availableBikes,stAddress1,stAddress2,city,postalCode,location,altitude,testStation,lastCommunicationTime,landMark
72,W 52 St & 11 Ave,30,39,40.76727216,-73.99392888,In Service,1,8,W 52 St & 11 Ave,,,10019,,,false,2016-12-04 03:06:52 AM,
79,Franklin St & W Broadway,9,33,40.71911552,-74.00666661,In Service,1,23,Franklin St & W Broadway,,,10013,,,false,2016-12-04 03:08:56 AM,
82,St James Pl & Pearl St,9,27,40.71117416,-74.00016545,In Service,1,18,St James Pl & Pearl St,,,10038,,,false,2016-12-04 03:07:35 AM,
83,Atlantic Ave & Fort Greene Pl,42,62,40.68382604,-73.97632328,In Service,1,18,Atlantic Ave & Fort Greene Pl,,,11217,,,false,2016-12-04 03:08:09 AM,
116,W 17 St & 8 Ave,1,39,40.74177603,-74.00149746,In Service,1,38,W 17 St & 8 Ave,,,10011,,,false,2016-12-04 03:06:46 AM,
119,Park Ave & St Edwards St,15,19,40.69608941,-73.97803415,In Service,1,4,Park Ave & St Edwards St,,,11205,,,false,2016-12-04 03:10:22 AM,
120,Lexington Ave & Classon Ave,9,19,40.68676793,-73.95928168,In Service,1,10,Lexington Ave & Classon Ave,,,11238,,,false,2016-12-04 03:08:25 AM,
127,Barrow St & Hudson St,1,31,40.73172428,-74.00674436,In Service,1,28,Barrow St & Hudson St,,,10014,,,false,2016-12-04 03:08:53 AM,
128,MacDougal St & Prince St,9,30,40.72710258,-74.00297088,In Service,1,20,MacDougal St & Prince St,,,10012,,,false,2016-12-04 03:09:04 AM,
137,E 56 St & Madison Ave,0,6,40.761628,-73.972924,Not In Service,3,0,E 56 St & Madison Ave,,,10022,,,false,2016-11-09 05:53:45 PM,
143,Clinton St & Joralemon St,13,24,40.69239502,-73.99337909,In Service,1,10,Clinton St & Joralemon St,,,11201,,,false,2016-12-04 03:09:43 AM,
144,Nassau St & Navy St,2,19,40.69839895,-73.98068914,In Service,1,15,Nassau St & Navy St,,,11201,,,false,2016-12-04 03:08:09 AM,
146,Hudson St & Reade St,21,39,40.71625008,-74.0091059,In Service,1,18,Hudson St & Reade St,,,10013,,,false,2016-12-04 03:09:15 AM,
147,Greenwich St & Warren St,4,33,40.71542197,-74.01121978,In Service,1,29,Greenwich St & Warren St,,,10007,,,false,2016-12-04 03:08:43 AM,
150,E 2 St & Avenue C,20,31,40.7208736,-73.98085795,In Service,1,11,E 2 St & Avenue C,,,10009,,,false,2016-12-04 03:08:50 AM,
151,Cleveland Pl & Spring St,23,33,40.722103786686,-73.997249007225,In Service,1,10,Cleveland Pl & Spring St,,,10012,,,false,2016-12-04 03:09:29 AM,
152,Warren St & Church St,3,29,40.71473993,-74.00910627,In Service,1,26,Warren St & Church St,,,10007,,,false,2016-12-04 03:07:33 AM,
153,E 40 St & 5 Ave,45,55,40.752062307,-73.9816324043,In Service,1,9,E 40 St & 5 Ave,,,10018,,,false,2016-12-04 03:08:16 AM,
157,Henry St & Atlantic Ave,9,23,40.69089272,-73.99612349,In Service,1,14,Henry St & Atlantic Ave,,,11201,,,false,2016-12-04 03:09:08 AM,
161,LaGuardia Pl & W 3 St,12,35,40.72917025,-73.99810231,In Service,1,23,LaGuardia Pl & W 3 St,,,10012,,,false,2016-12-04 03:07:59 AM,
164,E 47 St & 2 Ave,37,47,40.75323098,-73.97032517,In Service,1,10,E 47 St & 2 Ave,,,10017,,,false,2016-12-04 03:07:30 AM,
167,E 39 St & 3 Ave,43,45,40.7489006,-73.97604882,In Service,1,1,E 39 St & 3 Ave,,,10016,,,false,2016-12-04 03:09:51 AM,
168,W 18 St & 6 Ave,5,47,40.73971301,-73.99456405,In Service,1,42,W 18 St & 6 Ave,,,11215,,,false,2016-12-04 03:07:04 AM,
173,Broadway & W 49 St,48,51,40.760683270966,-73.984527289867,In Service,1,0,Broadway & W 49 St,,,10019,,,false,2016-12-04 03:09:19 AM,
174,E 25 St & 1 Ave,15,30,40.7381765,-73.97738662,In Service,1,14,E 25 St & 1 Ave,,,10010,,,false,2016-12-04 03:07:25 AM,
195,Liberty St & Broadway,27,45,40.70905623,-74.01043382,In Service,1,17,Liberty St & Broadway,,,10006,,,false,2016-12-04 03:07:04 AM,
212,W 16 St & The High Line,1,28,40.74334935,-74.00681753,In Service,1,25,W 16 St & The High Line,,,10011,,,false,2016-12-04 03:10:11 AM,
216,Columbia Heights & Cranberry St,21,23,40.70037867,-73.99548059,In Service,1,2,Columbia Heights & Cranberry St,,,11201,,,false,2016-12-04 03:07:15 AM,
217,Old Fulton St,21,39,40.70277159,-73.99383605,In Service,1,18,Old Fulton St,,,10038,,,false,2016-12-04 03:09:15 AM,
223,W 13 St & 7 Ave,3,3,40.73781509,-73.99994661,Not In Service,3,0,W 13 St & 7 Ave,,,10011,,,false,2016-11-22 07:39:47 AM,
224,Spruce St & Nassau St,10,31,40.71146364,-74.00552427,In Service,1,20,Spruce St & Nassau St,,,10038,,,false,2016-12-04 03:06:35 AM,
225,W 14 St & The High Line,3,37,40.74195138,-74.00803013,In Service,1,34,W 14 St & The High Line,,,10014,,,false,2016-12-04 03:07:34 AM,
228,E 48 St & 3 Ave,49,55,40.7546011026,-73.971878855,In Service,1,6,E 48 St & 3 Ave,,,10017,,,false,2016-12-04 03:08:43 AM,
229,Great Jones St,8,23,40.72743423,-73.99379025,In Service,1,15,Great Jones St,,,10012,,,false,2016-12-04 03:08:58 AM,
232,Cadman Plaza E & Tillary St,23,23,40.69597683,-73.99014892,In Service,1,0,Cadman Plaza E & Tillary St,,,11201,,,false,2016-12-04 03:06:38 AM,
236,St Marks Pl & 2 Ave,0,39,40.7284186,-73.98713956,In Service,1,39,St Marks Pl & 2 Ave,,,10003,,,false,2016-12-04 03:07:16 AM,
237,E 11 St & 2 Ave,5,39,40.73047309,-73.98672378,In Service,1,32,E 11 St & 2 Ave,,,10003,,,false,2016-12-04 03:08:45 AM,
238,Bank St & Washington St,3,31,40.7361967,-74.00859207,In Service,1,26,Bank St & Washington St,,,10014,,,false,2016-12-04 03:10:26 AM,
239,Willoughby St & Fleet St,29,31,40.69196566,-73.9813018,In Service,1,1,Willoughby St & Fleet St,,,10014,,,false,2016-12-04 03:09:13 AM,
241,DeKalb Ave & S Portland Ave,18,23,40.68981035,-73.97493121,In Service,1,5,DeKalb Ave & S Portland Ave,,,11201,,,false,2016-12-04 03:10:23 AM,
242,Carlton Ave & Flushing Ave,14,23,40.697787,-73.973736,In Service,1,9,Carlton Ave & Flushing Ave,,,11205,,,false,2016-12-04 03:07:04 AM,
243,Fulton St & Rockwell Pl,13,31,40.688226,-73.979382,In Service,1,17,Fulton St & Rockwell Pl,,,11217,,,false,2016-12-04 03:07:06 AM,
244,Willoughby Ave & Hall St,23,31,40.69196035,-73.96536851,In Service,1,7,Willoughby Ave & Hall St,,,11205,,,false,2016-12-04 03:07:26 AM,
245,Myrtle Ave & St Edwards St,21,23,40.69327018,-73.97703874,In Service,1,2,Myrtle Ave & St Edwards St,,,11205,,,false,2016-12-04 03:09:33 AM,
247,Perry St & Bleecker St,2,20,40.73535398,-74.00483091,In Service,1,17,Perry St & Bleecker St,,,10014,,,false,2016-12-04 03:08:06 AM,
248,Laight St & Hudson St,20,23,40.72185379,-74.00771779,In Service,1,2,Laight St & Hudson St,,,10013,,,false,2016-12-04 03:08:17 AM,
249,Harrison St & Hudson St,25,27,40.71870987,-74.0090009,In Service,1,2,Harrison St & Hudson St,,,10013,,,false,2016-12-04 03:08:50 AM,
251,Mott St & Prince St,12,27,40.72317958,-73.99480012,In Service,1,15,Mott St & Prince St,,,10012,,,false,2016-12-04 03:10:19 AM,
252,MacDougal St & Washington Sq,5,33,40.73226398,-73.99852205,In Service,1,28,MacDougal St & Washington Sq,,,10012,,,false,2016-12-04 03:09:57 AM,
253,W 13 St & 5 Ave,18,55,40.73543934,-73.99453948,In Service,1,37,W 13 St & 5 Ave,,,10011,,,false,2016-12-04 03:06:44 AM,
254,W 11 St & 6 Ave,8,31,40.73532427,-73.99800419,In Service,1,23,W 11 St & 6 Ave,,,10011,,,false,2016-12-04 03:08:01 AM,
257,Lispenard St & Broadway,1,39,40.71939226,-74.00247214,In Service,1,37,Lispenard St & Broadway,,,11205,,,false,2016-12-04 03:07:34 AM,
258,DeKalb Ave & Vanderbilt Ave,21,23,40.68940747,-73.96885458,In Service,1,2,DeKalb Ave & Vanderbilt Ave,,,11205,,,false,2016-12-04 03:06:55 AM,
259,South St & Whitehall St,24,39,40.70122128,-74.01234218,In Service,1,15,South St & Whitehall St,,,10004,,,false,2016-12-04 03:07:45 AM,
260,Broad St & Bridge St,25,35,40.70365182,-74.01167797,In Service,1,9,Broad St & Bridge St,,,10004,,,false,2016-12-04 03:09:12 AM,
261,Johnson St & Gold St,9,27,40.69474881,-73.98362464,In Service,1,17,Johnson St & Gold St,,,11201,,,false,2016-12-04 03:08:42 AM,
262,Washington Park,22,24,40.6917823,-73.9737299,In Service,1,2,Washington Park,,,11225,,,false,2016-12-04 03:10:27 AM,
264,Maiden Ln & Pearl St,6,27,40.70706456,-74.00731853,In Service,1,21,Maiden Ln & Pearl St,,,10038,,,false,2016-12-04 03:06:50 AM,
265,Stanton St & Chrystie St,12,35,40.72229346,-73.99147535,In Service,1,22,Stanton St & Chrystie St,,,10002,,,false,2016-12-04 03:06:45 AM,
266,Avenue D & E 8 St,19,24,40.72368361,-73.97574813,In Service,1,4,Avenue D & E 8 St,,,10009,,,false,2016-12-04 03:08:57 AM,
267,Broadway & W 36 St,45,57,40.75097711,-73.98765428,In Service,1,11,Broadway & W 36 St,,,10018,,,false,2016-12-04 03:08:02 AM,
268,Howard St & Centre St,11,27,40.71910537,-73.99973337,In Service,1,16,Howard St & Centre St,,,10013,,,false,2016-12-04 03:07:42 AM,
270,Adelphi St & Myrtle Ave,19,23,40.69308257,-73.97178913,In Service,1,4,Adelphi St & Myrtle Ave,,,11205,,,false,2016-12-04 03:07:30 AM,
274,Lafayette Ave & Fort Greene Pl,12,31,40.68691865,-73.976682,In Service,1,18,Lafayette Ave & Fort Greene Pl,,,11217,,,false,2016-12-04 03:07:38 AM,
275,Washington Ave & Greene Ave,11,19,40.68650065,-73.96563307,In Service,1,8,Washington Ave & Greene Ave,,,11238,,,false,2016-12-04 03:09:43 AM,
276,Duane St & Greenwich St,10,25,40.71748752,-74.0104554,In Service,1,15,Duane St & Greenwich St,,,10013,,,false,2016-12-04 03:06:53 AM,
278,Concord St & Bridge St,17,19,40.69766564,-73.98476437,In Service,1,2,Concord St & Bridge St,,,11201,,,false,2016-12-04 03:09:31 AM,
279,Peck Slip & Front St,0,36,40.707873,-74.00167,In Service,1,35,Peck Slip & Front St,,,10038,,,false,2016-12-04 03:10:28 AM,
280,E 10 St & 5 Ave,2,31,40.73331967,-73.99510132,In Service,1,29,E 10 St & 5 Ave,,,10011,,,false,2016-12-04 03:08:47 AM,
281,Grand Army Plaza & Central Park S,35,59,40.7643971,-73.97371465,In Service,1,24,Grand Army Plaza & Central Park S,,,10019,,,false,2016-12-04 03:09:42 AM,
282,Kent Ave & S 11 St,15,27,40.707644944176,-73.968415260315,In Service,1,10,Kent Ave & S 11 St,,,11249,,,false,2016-12-04 03:07:17 AM,
284,Greenwich Ave & 8 Ave,2,43,40.7390169121,-74.0026376103,In Service,1,40,Greenwich Ave & 8 Ave,,,10011,,,false,2016-12-04 03:09:00 AM,
285,Broadway & E 14 St,18,47,40.73454567,-73.99074142,In Service,1,28,Broadway & E 14 St,,,10003,,,false,2016-12-04 03:06:53 AM,
289,Monroe St & Classon Ave,8,19,40.6845683,-73.95881081,In Service,1,11,Monroe St & Classon Ave,,,11238,,,false,2016-12-04 03:08:33 AM,
291,Madison St & Montgomery St,3,20,40.713126,-73.984844,In Service,1,17,Madison St & Montgomery St,,,10002,,,false,2016-12-04 03:09:38 AM,
293,Lafayette St & E 8 St,6,55,40.73028666,-73.9907647,In Service,1,48,Lafayette St & E 8 St,,,10003,,,false,2016-12-04 03:10:05 AM,
295,Pike St & E Broadway,5,24,40.71406667,-73.99293911,In Service,1,19,Pike St & E Broadway,,,10002,,,false,2016-12-04 03:08:57 AM,
296,Division St & Bowery,3,35,40.71413089,-73.9970468,In Service,1,32,Division St & Bowery,,,10002,,,false,2016-12-04 03:07:41 AM,
297,E 15 St & 3 Ave,6,27,40.734232,-73.986923,In Service,1,19,E 15 St & 3 Ave,,,10003,,,false,2016-12-04 03:09:50 AM,
298,3 Ave & Schermerhorn St,25,35,40.68683208,-73.9796772,In Service,1,9,3 Ave & Schermerhorn St,,,11217,,,false,2016-12-04 03:09:44 AM,
301,E 2 St & Avenue B,16,37,40.72217444,-73.98368779,In Service,1,21,E 2 St & Avenue B,,,10009,,,false,2016-12-04 03:09:26 AM,
302,Avenue D & E 3 St,7,23,40.72082834,-73.97793172,In Service,1,15,Avenue D & E 3 St,,,10009,,,false,2016-12-04 03:07:27 AM,
303,Mercer St & Spring St,13,31,40.72362738,-73.99949601,In Service,1,17,Mercer St & Spring St,,,10012,,,false,2016-12-04 03:09:35 AM,
304,Broadway & Battery Pl,12,34,40.70463334,-74.01361706,In Service,1,22,Broadway & Battery Pl,,,10004,,,false,2016-12-04 03:07:52 AM,
305,E 58 St & 3 Ave,26,33,40.76095756,-73.96724467,In Service,1,5,E 58 St & 3 Ave,,,10155,,,false,2016-12-04 03:07:48 AM,
306,Cliff St & Fulton St,0,37,40.70823502,-74.00530063,In Service,1,37,Cliff St & Fulton St,,,10038,,,false,2016-12-04 03:07:15 AM,
307,Canal St & Rutgers St,4,29,40.71427487,-73.98990025,In Service,1,23,Canal St & Rutgers St,,,10002,,,false,2016-12-04 03:09:01 AM,
308,St James Pl & Oliver St,2,27,40.71307916,-73.99851193,In Service,1,24,St James Pl & Oliver St,,,10038,,,false,2016-12-04 03:08:23 AM,
309,Murray St & West St,8,41,40.7149787,-74.013012,In Service,1,32,Murray St & West St,,,10007,,,false,2016-12-04 03:09:39 AM,
310,State St & Smith St,34,36,40.68926942,-73.98912867,In Service,1,2,State St & Smith St,,,11201,,,false,2016-12-04 03:06:51 AM,
311,Norfolk St & Broome St,4,31,40.7172274,-73.98802084,In Service,1,27,Norfolk St & Broome St,,,10002,,,false,2016-12-04 03:09:52 AM,
312,Allen St & Stanton St,15,31,40.722055,-73.989111,In Service,1,15,Allen St & Stanton St,,,10002,,,false,2016-12-04 03:08:28 AM,
313,Washington Ave & Park Ave,10,23,40.69610226,-73.96751037,In Service,1,13,Washington Ave & Park Ave,,,11205,,,false,2016-12-04 03:07:55 AM,
315,South St & Gouverneur Ln,11,29,40.70355377,-74.00670227,In Service,1,17,South St & Gouverneur Ln,,,10005,,,false,2016-12-04 03:09:34 AM,
316,Fulton St & William St,26,43,40.70955958,-74.00653609,In Service,1,16,Fulton St & William St,,,10038,,,false,2016-12-04 03:08:39 AM,
317,E 6 St & Avenue B,1,27,40.72453734,-73.98185424,In Service,1,26,E 6 St & Avenue B,,,10009,,,false,2016-12-04 03:10:11 AM,
319,Fulton St & Broadway,17,33,40.711066,-74.009447,In Service,1,15,Fulton St & Broadway,,,10038,,,false,2016-12-04 03:10:28 AM,
320,Leonard St & Church St,23,39,40.717571,-74.005549,In Service,1,16,Leonard St & Church St,,,10013,,,false,2016-12-04 03:09:03 AM,
321,Cadman Plaza E & Red Cross Pl,19,27,40.69991755,-73.98971773,In Service,1,8,Cadman Plaza E & Red Cross Pl,,,11201,,,false,2016-12-04 03:09:40 AM,
322,Clinton St & Tillary St,31,31,40.696192,-73.991218,In Service,1,0,Clinton St & Tillary St,,,11201,,,false,2016-12-04 03:09:09 AM,
323,Lawrence St & Willoughby St,29,39,40.69236178,-73.98631746,In Service,1,8,Lawrence St & Willoughby St,,,11201,,,false,2016-12-04 03:08:37 AM,
324,DeKalb Ave & Hudson Ave,16,51,40.689888,-73.981013,In Service,1,34,DeKalb Ave & Hudson Ave,,,11201,,,false,2016-12-04 03:07:42 AM,
325,E 19 St & 3 Ave,0,35,40.73624527,-73.98473765,In Service,1,34,E 19 St & 3 Ave,,,10003,,,false,2016-12-04 03:08:13 AM,
326,E 11 St & 1 Ave,5,27,40.72953837,-73.98426726,In Service,1,22,E 11 St & 1 Ave,,,10009,,,false,2016-12-04 03:09:03 AM,
327,Vesey Pl & River Terrace,21,39,40.7153379,-74.01658354,In Service,1,16,Vesey Pl & River Terrace,,,10282,,,false,2016-12-04 03:07:15 AM,
328,Watts St & Greenwich St,17,23,40.72405549,-74.00965965,In Service,1,6,Watts St & Greenwich St,,,10013,,,false,2016-12-04 03:08:53 AM,
330,Reade St & Broadway,20,39,40.71450451,-74.00562789,In Service,1,19,Reade St & Broadway,,,10007,,,false,2016-12-04 03:08:37 AM,
331,Pike St & Monroe St,13,27,40.71173107,-73.99193043,In Service,1,14,Pike St & Monroe St,,,10002,,,false,2016-12-04 03:10:08 AM,
332,Cherry St,8,24,40.71219906,-73.97948148,In Service,1,15,Cherry St,,,10002,,,false,2016-12-04 03:07:50 AM,
334,W 20 St & 7 Ave,2,31,40.74238787,-73.99726235,In Service,1,28,W 20 St & 7 Ave,,,10011,,,false,2016-12-04 03:08:07 AM,
335,Washington Pl & Broadway,10,27,40.72903917,-73.99404649,In Service,1,15,Washington Pl & Broadway,,,10003,,,false,2016-12-04 03:10:01 AM,
336,Sullivan St & Washington Sq,21,36,40.73047747,-73.99906065,In Service,1,15,Sullivan St & Washington Sq,,,10012,,,false,2016-12-04 03:08:05 AM,
337,Old Slip & Front St,25,37,40.7037992,-74.00838676,In Service,1,12,Old Slip & Front St,,,10005,,,false,2016-12-04 03:09:56 AM,
339,Avenue D & E 12 St,15,24,40.72580614,-73.97422494,In Service,1,9,Avenue D & E 12 St,,,10009,,,false,2016-12-04 03:08:40 AM,
340,Madison St & Clinton St,10,27,40.71269042,-73.98776323,In Service,1,17,Madison St & Clinton St,,,10002,,,false,2016-12-04 03:10:26 AM,
341,Stanton St & Mangin St,5,19,40.71782143,-73.97628939,In Service,1,14,Stanton St & Mangin St,,,10002,,,false,2016-12-04 03:07:18 AM,
342,Columbia St & Rivington St,3,29,40.71739973,-73.98016555,In Service,1,24,Columbia St & Rivington St,,,10002,,,false,2016-12-04 03:09:29 AM,
343,Clinton Ave & Flushing Ave,7,23,40.69794,-73.96986848,In Service,1,15,Clinton Ave & Flushing Ave,,,11205,,,false,2016-12-04 03:08:57 AM,
344,Monroe St & Bedford Ave,23,23,40.6851443,-73.95380904,In Service,1,0,Monroe St & Bedford Ave,,,11216,,,false,2016-12-04 03:07:22 AM,
345,W 13 St & 6 Ave,16,35,40.73649403,-73.99704374,In Service,1,18,W 13 St & 6 Ave,,,10011,,,false,2016-12-04 03:08:11 AM,
346,Bank St & Hudson St,2,27,40.73652889,-74.00618026,In Service,1,25,Bank St & Hudson St,,,10014,,,false,2016-12-04 03:09:15 AM,
347,Greenwich St & W Houston St,7,35,40.728846,-74.008591,In Service,1,28,Greenwich St & W Houston St,,,10014,,,false,2016-12-04 03:09:42 AM,
348,W Broadway & Spring St,13,42,40.72490985,-74.00154702,In Service,1,29,W Broadway & Spring St,,,10012,,,false,2016-12-04 03:10:11 AM,
349,Rivington St & Ridge St,10,23,40.71850211,-73.98329859,In Service,1,13,Rivington St & Ridge St,,,10002,,,false,2016-12-04 03:08:38 AM,
350,Clinton St & Grand St,10,28,40.71559509,-73.9870295,In Service,1,18,Clinton St & Grand St,,,10002,,,false,2016-12-04 03:10:16 AM,
351,Front St & Maiden Ln,9,39,40.70530954,-74.00612572,In Service,1,29,Front St & Maiden Ln,,,10038,,,false,2016-12-04 03:06:47 AM,
352,W 56 St & 6 Ave,32,36,40.76340613,-73.97722479,In Service,1,2,W 56 St & 6 Ave,,,10019,,,false,2016-12-04 03:10:16 AM,
353,S Portland Ave & Hanson Pl,12,27,40.68539567,-73.97431458,In Service,1,14,S Portland Ave & Hanson Pl,,,11217,,,false,2016-12-04 03:09:04 AM,
354,Emerson Pl & Myrtle Ave,5,23,40.69363137,-73.96223558,In Service,1,18,Emerson Pl & Myrtle Ave,,,11205,,,false,2016-12-04 03:07:36 AM,
355,Bayard St & Baxter St,16,43,40.71602118,-73.99974372,In Service,1,26,Bayard St & Baxter St,,,10013,,,false,2016-12-04 03:10:29 AM,
356,Bialystoker Pl & Delancey St,13,23,40.71622644,-73.98261206,In Service,1,7,Bialystoker Pl & Delancey St,,,10002,,,false,2016-12-04 03:10:01 AM,
357,E 11 St & Broadway,15,27,40.73261787,-73.99158043,In Service,1,12,E 11 St & Broadway,,,10003,,,false,2016-12-04 03:09:13 AM,
358,Christopher St & Greenwich St,9,36,40.73291553,-74.00711384,In Service,1,26,Christopher St & Greenwich St,,,10014,,,false,2016-12-04 03:07:39 AM,
359,E 47 St & Park Ave,50,55,40.75510267,-73.97498696,In Service,1,4,E 47 St & Park Ave,,,10017,,,false,2016-12-04 03:10:20 AM,
360,William St & Pine St,38,39,40.70717936,-74.00887308,In Service,1,1,William St & Pine St,,,10005,,,false,2016-12-04 03:10:03 AM,
361,Allen St & Hester St,14,43,40.71605866,-73.99190759,In Service,1,29,Allen St & Hester St,,,10002,,,false,2016-12-04 03:10:14 AM,
362,Broadway & W 37 St,34,57,40.75172632,-73.98753523,In Service,1,22,Broadway & W 37 St,,,10018,,,false,2016-12-04 03:07:30 AM,
363,West Thames St,7,49,40.70834698,-74.01713445,In Service,1,41,West Thames St,,,10280,,,false,2016-12-04 03:07:13 AM,
364,Lafayette Ave & Classon Ave,27,27,40.68900443,-73.96023854,In Service,1,0,Lafayette Ave & Classon Ave,,,11238,,,false,2016-12-04 03:08:45 AM,
365,Fulton St & Grand Ave,19,31,40.68223166,-73.9614583,In Service,1,12,Fulton St & Grand Ave,,,11238,,,false,2016-12-04 03:09:46 AM,
366,Clinton Ave & Myrtle Ave,26,33,40.693261,-73.968896,In Service,1,6,Clinton Ave & Myrtle Ave,,,11205,,,false,2016-12-04 03:10:12 AM,
367,E 53 St & Lexington Ave,31,34,40.75828065,-73.97069431,In Service,1,3,E 53 St & Lexington Ave,,,10022,,,false,2016-12-04 03:08:24 AM,
368,Carmine St & 6 Ave,4,39,40.73038599,-74.00214988,In Service,1,33,Carmine St & 6 Ave,,,10014,,,false,2016-12-04 03:07:37 AM,
369,Washington Pl & 6 Ave,20,35,40.73224119,-74.00026394,In Service,1,15,Washington Pl & 6 Ave,,,10014,,,false,2016-12-04 03:08:31 AM,
372,Franklin Ave & Myrtle Ave,22,27,40.694528,-73.958089,In Service,1,5,Franklin Ave & Myrtle Ave,,,11205,,,false,2016-12-04 03:07:45 AM,
373,Willoughby Ave & Walworth St,8,19,40.69331716,-73.95381995,In Service,1,11,Willoughby Ave & Walworth St,,,11205,,,false,2016-12-04 03:09:37 AM,
376,John St & William St,7,43,40.70862144,-74.00722156,In Service,1,36,John St & William St,,,10038,,,false,2016-12-04 03:09:22 AM,
377,6 Ave & Canal St,26,47,40.72243797,-74.00566443,In Service,1,20,6 Ave & Canal St,,,10013,,,false,2016-12-04 03:07:31 AM,
379,W 31 St & 7 Ave,11,42,40.749156,-73.9916,In Service,1,31,W 31 St & 7 Ave,,,10001,,,false,2016-12-04 03:08:34 AM,
380,W 4 St & 7 Ave S,9,39,40.73401143,-74.00293877,In Service,1,28,W 4 St & 7 Ave S,,,10014,,,false,2016-12-04 03:06:56 AM,
382,University Pl & E 14 St,8,36,40.73492695,-73.99200509,In Service,1,25,University Pl & E 14 St,,,10003,,,false,2016-12-04 03:09:53 AM,
383,Greenwich Ave & Charles St,23,39,40.735238,-74.000271,In Service,1,15,Greenwich Ave & Charles St,,,10014,,,false,2016-12-04 03:09:46 AM,
384,Fulton St & Washington Ave,29,31,40.683048,-73.964915,In Service,1,2,Fulton St & Washington Ave,,,11238,,,false,2016-12-04 03:07:17 AM,
385,E 55 St & 2 Ave,26,29,40.75797322,-73.96603308,In Service,1,3,E 55 St & 2 Ave,,,10022,,,false,2016-12-04 03:09:50 AM,
386,Centre St & Worth St,5,43,40.71494807,-74.00234482,In Service,1,38,Centre St & Worth St,,,10013,,,false,2016-12-04 03:10:07 AM,
387,Centre St & Chambers St,14,39,40.71273266,-74.0046073,In Service,1,25,Centre St & Chambers St,,,10013,,,false,2016-12-04 03:09:43 AM,
388,W 26 St & 10 Ave,3,35,40.749717753,-74.002950346,In Service,1,32,W 26 St & 10 Ave,,,10001,,,false,2016-12-04 03:07:05 AM,
389,Broadway & Berry St,24,27,40.71044554,-73.96525063,In Service,1,3,Broadway & Berry St,,,11249,,,false,2016-12-04 03:10:25 AM,
390,Duffield St & Willoughby St,17,31,40.69221589,-73.9842844,In Service,1,13,Duffield St & Willoughby St,,,11201,,,false,2016-12-04 03:08:26 AM,
391,Clark St & Henry St,25,31,40.69760127,-73.99344559,In Service,1,6,Clark St & Henry St,,,11201,,,false,2016-12-04 03:08:43 AM,
392,Jay St & Tech Pl,13,32,40.695065,-73.987167,In Service,1,19,Jay St & Tech Pl,,,11201,,,false,2016-12-04 03:08:51 AM,
393,E 5 St & Avenue C,26,31,40.72299208,-73.97995466,In Service,1,5,E 5 St & Avenue C,,,10009,,,false,2016-12-04 03:08:10 AM,
394,E 9 St & Avenue C,22,32,40.72521311,-73.97768752,In Service,1,10,E 9 St & Avenue C,,,10009,,,false,2016-12-04 03:10:28 AM,
395,Bond St & Schermerhorn St,27,30,40.68807003,-73.98410637,In Service,1,3,Bond St & Schermerhorn St,,,11217,,,false,2016-12-04 03:07:30 AM,
396,Lefferts Pl & Franklin Ave,24,25,40.680342423,-73.9557689392,In Service,1,1,Lefferts Pl & Franklin Ave,,,11238,,,false,2016-12-04 03:06:58 AM,
397,Fulton St & Clermont Ave,22,27,40.68415748,-73.96922273,In Service,1,5,Fulton St & Clermont Ave,,,11238,,,false,2016-12-04 03:09:40 AM,
398,Atlantic Ave & Furman St,19,31,40.69165183,-73.9999786,In Service,1,11,Atlantic Ave & Furman St,,,11201,,,false,2016-12-04 03:08:30 AM,
399,Lafayette Ave & St James Pl,17,27,40.68851534,-73.9647628,In Service,1,10,Lafayette Ave & St James Pl,,,11205,,,false,2016-12-04 03:08:04 AM,
400,Pitt St & Stanton St,10,15,40.71926081,-73.98178024,In Service,1,5,Pitt St & Stanton St,,,10002,,,false,2016-12-04 03:09:09 AM,
401,Allen St & Rivington St,13,42,40.72019576,-73.98997825,In Service,1,29,Allen St & Rivington St,,,10002,,,false,2016-12-04 03:09:03 AM,
402,Broadway & E 22 St,13,40,40.7403432,-73.98955109,In Service,1,26,Broadway & E 22 St,,,10010,,,false,2016-12-04 03:09:40 AM,
405,Washington St & Gansevoort St,8,40,40.739323,-74.008119,In Service,1,31,Washington St & Gansevoort St,,,10014,,,false,2016-12-04 03:07:54 AM,
406,Hicks St & Montague St,16,34,40.69512845,-73.99595065,In Service,1,17,Hicks St & Montague St,,,11201,,,false,2016-12-04 03:08:08 AM,
407,Henry St & Poplar St,36,37,40.700469,-73.991454,In Service,1,1,Henry St & Poplar St,,,11201,,,false,2016-12-04 03:08:06 AM,
408,Market St & Cherry St,8,23,40.71076228,-73.99400398,In Service,1,14,Market St & Cherry St,,,10002,,,false,2016-12-04 03:08:46 AM,
409,DeKalb Ave & Skillman St,12,19,40.6906495,-73.95643107,In Service,1,6,DeKalb Ave & Skillman St,,,11205,,,false,2016-12-04 03:08:07 AM,
410,Suffolk St & Stanton St,1,35,40.72066442,-73.98517977,In Service,1,32,Suffolk St & Stanton St,,,10002,,,false,2016-12-04 03:07:26 AM,
411,E 6 St & Avenue D,13,23,40.72228087,-73.97668709,In Service,1,10,E 6 St & Avenue D,,,10009,,,false,2016-12-04 03:08:34 AM,
412,Forsyth St & Canal St,15,29,40.7158155,-73.99422366,In Service,1,14,Forsyth St & Canal St,,,10002,,,false,2016-12-04 03:07:37 AM,
414,Pearl St & Anchorage Pl,8,24,40.70281858,-73.98765762,In Service,1,16,Pearl St & Anchorage Pl,,,11201,,,false,2016-12-04 03:06:55 AM,
415,Pearl St & Hanover Square,33,42,40.7047177,-74.00926027,In Service,1,9,Pearl St & Hanover Square,,,10004,,,false,2016-12-04 03:09:46 AM,
416,Cumberland St & Lafayette Ave,17,31,40.68753406,-73.97265183,In Service,1,13,Cumberland St & Lafayette Ave,,,11217,,,false,2016-12-04 03:09:33 AM,
417,Barclay St & Church St,3,23,40.71291224,-74.01020234,In Service,1,20,Barclay St & Church St,,,10007,,,false,2016-12-04 03:08:45 AM,
418,Front St & Gold St,18,23,40.70224,-73.982578,In Service,1,4,Front St & Gold St,,,11201,,,false,2016-12-04 03:08:59 AM,
419,Carlton Ave & Park Ave,12,23,40.69580705,-73.97355569,In Service,1,11,Carlton Ave & Park Ave,,,11205,,,false,2016-12-04 03:08:00 AM,
420,Clermont Ave & Lafayette Ave,18,23,40.68764484,-73.96968902,In Service,1,5,Clermont Ave & Lafayette Ave,,,11205,,,false,2016-12-04 03:10:11 AM,
421,Clermont Ave & Park Ave,14,19,40.69573398,-73.97129668,In Service,1,5,Clermont Ave & Park Ave,,,11205,,,false,2016-12-04 03:09:44 AM,
422,W 59 St & 10 Ave,45,55,40.770513,-73.988038,In Service,1,9,W 59 St & 10 Ave,,,10019,,,false,2016-12-04 03:07:57 AM,
423,W 54 St & 9 Ave,28,39,40.76584941,-73.98690506,In Service,1,10,W 54 St & 9 Ave,,,10019,,,false,2016-12-04 03:09:31 AM,
426,West St & Chambers St,1,31,40.71754834,-74.01322069,In Service,1,28,West St & Chambers St,,,10282,,,false,2016-12-04 03:07:05 AM,
427,Bus Slip & State St,27,47,40.701907,-74.013942,In Service,1,20,Bus Slip & State St,,,10004,,,false,2016-12-04 03:08:15 AM,
428,E 3 St & 1 Ave,8,31,40.72467721,-73.98783413,In Service,1,23,E 3 St & 1 Ave,,,10009,,,false,2016-12-04 03:06:57 AM,
430,York St & Jay St,26,27,40.7014851,-73.98656928,In Service,1,0,York St & Jay St,,,11201,,,false,2016-12-04 03:06:59 AM,
432,E 7 St & Avenue A,18,31,40.72621788,-73.98379855,In Service,1,13,E 7 St & Avenue A,,,10009,,,false,2016-12-04 03:08:26 AM,
433,E 13 St & Avenue A,34,39,40.72955361,-73.98057249,In Service,1,5,E 13 St & Avenue A,,,10009,,,false,2016-12-04 03:07:00 AM,
434,9 Ave & W 18 St,3,27,40.74317449,-74.00366443,In Service,1,23,9 Ave & W 18 St,,,10011,,,false,2016-12-04 03:10:20 AM,
435,W 21 St & 6 Ave,7,47,40.74173969,-73.99415556,In Service,1,40,W 21 St & 6 Ave,,,11215,,,false,2016-12-04 03:06:36 AM,
436,Hancock St & Bedford Ave,25,27,40.68216564,-73.95399026,In Service,1,2,Hancock St & Bedford Ave,,,11216,,,false,2016-12-04 03:10:24 AM,
437,Macon St & Nostrand Ave,17,24,40.6809833854,-73.9500479759,In Service,1,7,Macon St & Nostrand Ave,,,11216,,,false,2016-12-04 03:10:04 AM,
438,St Marks Pl & 1 Ave,3,27,40.72779126,-73.98564945,In Service,1,24,St Marks Pl & 1 Ave,,,10009,,,false,2016-12-04 03:08:13 AM,
439,E 4 St & 2 Ave,6,39,40.7262807,-73.98978041,In Service,1,33,E 4 St & 2 Ave,,,10003,,,false,2016-12-04 03:07:16 AM,
440,E 45 St & 3 Ave,32,32,40.75255434,-73.97282625,In Service,1,0,E 45 St & 3 Ave,,,10017,,,false,2016-12-04 03:07:11 AM,
441,E 52 St & 2 Ave,18,35,40.756014,-73.967416,In Service,1,16,E 52 St & 2 Ave,,,10022,,,false,2016-12-04 03:08:33 AM,
442,W 27 St & 7 Ave,8,51,40.746647,-73.993915,In Service,1,42,W 27 St & 7 Ave,,,10001,,,false,2016-12-04 03:10:24 AM,
443,Bedford Ave & S 9 St,2,23,40.70853074,-73.96408963,In Service,1,21,Bedford Ave & S 9 St,,,11249,,,false,2016-12-04 03:09:36 AM,
444,Broadway & W 24 St,17,52,40.7423543,-73.98915076,In Service,1,35,Broadway & W 24 St,,,10010,,,false,2016-12-04 03:09:37 AM,
445,E 10 St & Avenue A,18,42,40.72740794,-73.98142006,In Service,1,24,E 10 St & Avenue A,,,10009,,,false,2016-12-04 03:08:30 AM,
446,W 24 St & 7 Ave,7,39,40.74487634,-73.99529885,In Service,1,32,W 24 St & 7 Ave,,,10011,,,false,2016-12-04 03:08:28 AM,
447,8 Ave & W 52 St,19,31,40.76370739,-73.9851615,In Service,1,10,8 Ave & W 52 St,,,10019,,,false,2016-12-04 03:07:07 AM,
448,W 37 St & 10 Ave,27,31,40.75660359,-73.9979009,In Service,1,4,W 37 St & 10 Ave,,,10018,,,false,2016-12-04 03:09:07 AM,
449,W 52 St & 9 Ave,29,31,40.76461837,-73.98789473,In Service,1,0,W 52 St & 9 Ave,,,10019,,,false,2016-12-04 03:06:53 AM,
450,W 49 St & 8 Ave,41,59,40.76227205,-73.98788205,In Service,1,18,W 49 St & 8 Ave,,,10019,,,false,2016-12-04 03:09:06 AM,
453,W 22 St & 8 Ave,5,39,40.74475148,-73.99915362,In Service,1,33,W 22 St & 8 Ave,,,10011,,,false,2016-12-04 03:06:47 AM,
454,E 51 St & 1 Ave,28,35,40.75455731,-73.96592976,In Service,1,6,E 51 St & 1 Ave,,,10022,,,false,2016-12-04 03:09:15 AM,
455,1 Ave & E 44 St,31,39,40.75001986,-73.96905301,In Service,1,8,1 Ave & E 44 St,,,10017,,,false,2016-12-04 03:07:38 AM,
456,E 53 St & Madison Ave,35,35,40.7597108,-73.97402311,In Service,1,0,E 53 St & Madison Ave,,,10022,,,false,2016-12-04 03:07:30 AM,
457,Broadway & W 58 St,15,39,40.76695317,-73.98169333,In Service,1,24,Broadway & W 58 St,,,10019,,,false,2016-12-04 03:08:12 AM,
458,11 Ave & W 27 St,12,31,40.751396,-74.005226,In Service,1,15,11 Ave & W 27 St,,,10001,,,false,2016-12-04 03:06:55 AM,
459,W 20 St & 11 Ave,43,49,40.746745,-74.007756,In Service,1,4,W 20 St & 11 Ave,,,10011,,,false,2016-12-04 03:10:03 AM,
460,S 4 St & Wythe Ave,8,23,40.71285887,-73.96590294,In Service,1,14,S 4 St & Wythe Ave,,,11249,,,false,2016-12-04 03:08:53 AM,
461,E 20 St & 2 Ave,14,39,40.73587678,-73.98205027,In Service,1,24,E 20 St & 2 Ave,,,10003,,,false,2016-12-04 03:08:19 AM,
462,W 22 St & 10 Ave,0,0,40.74691959,-74.00451887,Not In Service,3,0,W 22 St & 10 Ave,,,10011,,,false,2016-10-20 10:00:30 AM,
465,Broadway & W 41 St,0,0,40.75513557,-73.98658032,Not In Service,3,0,Broadway & W 41 St,,,10018,,,false,2016-09-22 02:16:25 PM,
466,W 25 St & 6 Ave,4,35,40.74395411,-73.99144871,In Service,1,31,W 25 St & 6 Ave,,,10010,,,false,2016-12-04 03:09:35 AM,
467,Dean St & 4 Ave,22,34,40.68312489,-73.97895137,In Service,1,11,Dean St & 4 Ave,,,11217,,,false,2016-12-04 03:08:20 AM,
468,Broadway & W 55 St,53,59,40.7652654,-73.98192338,In Service,1,6,Broadway & W 55 St,,,10019,,,false,2016-12-04 03:08:58 AM,
469,Broadway & W 53 St,55,57,40.76344058,-73.98268129,In Service,1,2,Broadway & W 53 St,,,10019,,,false,2016-12-04 03:08:49 AM,
470,W 20 St & 8 Ave,1,37,40.74345335,-74.00004031,In Service,1,35,W 20 St & 8 Ave,,,10011,,,false,2016-12-04 03:09:21 AM,
471,Grand St & Havemeyer St,25,31,40.71286844,-73.95698119,In Service,1,5,Grand St & Havemeyer St,,,11211,,,false,2016-12-04 03:10:05 AM,
472,E 32 St & Park Ave,39,41,40.7457121,-73.98194829,In Service,1,1,E 32 St & Park Ave,,,10016,,,false,2016-12-04 03:06:53 AM,
473,Rivington St & Chrystie St,9,38,40.72110063,-73.9919254,In Service,1,28,Rivington St & Chrystie St,,,10002,,,false,2016-12-04 03:08:45 AM,
474,5 Ave & E 29 St,21,39,40.7451677,-73.98683077,In Service,1,12,5 Ave & E 29 St,,,10016,,,false,2016-12-04 03:07:51 AM,
475,E 16 St & Irving Pl,18,37,40.73524276,-73.98758561,In Service,1,19,E 16 St & Irving Pl,,,10003,,,false,2016-12-04 03:07:09 AM,
476,E 31 St & 3 Ave,15,47,40.74394314,-73.97966069,In Service,1,31,E 31 St & 3 Ave,,,10016,,,false,2016-12-04 03:10:08 AM,
477,W 41 St & 8 Ave,2,59,40.75640548,-73.9900262,In Service,1,51,W 41 St & 8 Ave,,,10036,,,false,2016-12-04 03:07:42 AM,
478,11 Ave & W 41 St,2,31,40.76030096,-73.99884222,In Service,1,28,11 Ave & W 41 St,,,10036,,,false,2016-12-04 03:10:24 AM,
479,9 Ave & W 45 St,23,31,40.76019252,-73.9912551,In Service,1,7,9 Ave & W 45 St,,,10036,,,false,2016-12-04 03:08:27 AM,
480,W 53 St & 10 Ave,10,27,40.76669671,-73.99061728,In Service,1,16,W 53 St & 10 Ave,,,10019,,,false,2016-12-04 03:07:37 AM,
481,S 3 St & Bedford Ave,22,25,40.71260486,-73.96264403,In Service,1,1,S 3 St & Bedford Ave,,,11249,,,false,2016-12-04 03:09:37 AM,
482,W 15 St & 7 Ave,1,39,40.73935542,-73.99931783,In Service,1,38,W 15 St & 7 Ave,,,10011,,,false,2016-12-04 03:07:30 AM,
483,E 12 St & 3 Ave,4,35,40.73223272,-73.98889957,In Service,1,31,E 12 St & 3 Ave,,,10003,,,false,2016-12-04 03:09:10 AM,
484,W 44 St & 5 Ave,39,44,40.75500254,-73.98014437,In Service,1,5,W 44 St & 5 Ave,,,10036,,,false,2016-12-04 03:09:57 AM,
485,W 37 St & 5 Ave,28,39,40.75038009,-73.98338988,In Service,1,9,W 37 St & 5 Ave,,,10018,,,false,2016-12-04 03:09:53 AM,
486,Broadway & W 29 St,15,39,40.7462009,-73.98855723,In Service,1,21,Broadway & W 29 St,,,10001,,,false,2016-12-04 03:09:48 AM,
487,E 20 St & FDR Drive,0,36,40.73314259,-73.97573881,In Service,1,36,E 20 St & FDR Drive,,,10010,,,false,2016-12-04 03:08:21 AM,
488,W 39 St & 9 Ave,32,41,40.75645824,-73.99372222,In Service,1,8,W 39 St & 9 Ave,,,10018,,,false,2016-12-04 03:09:19 AM,
490,8 Ave & W 33 St,24,59,40.751551,-73.993934,In Service,1,33,8 Ave & W 33 St,,,10001,,,false,2016-12-04 03:08:37 AM,
491,E 24 St & Park Ave S,30,53,40.74096374,-73.98602213,In Service,1,22,E 24 St & Park Ave S,,,10010,,,false,2016-12-04 03:06:40 AM,
492,W 33 St & 7 Ave,8,49,40.75019995,-73.99093085,In Service,1,40,W 33 St & 7 Ave,,,10010,,,false,2016-12-04 03:08:40 AM,
493,W 45 St & 6 Ave,31,34,40.7568001,-73.98291153,In Service,1,3,W 45 St & 6 Ave,,,10036,,,false,2016-12-04 03:07:31 AM,
494,W 26 St & 8 Ave,0,35,40.74734825,-73.99723551,In Service,1,33,W 26 St & 8 Ave,,,10001,,,false,2016-12-04 03:07:21 AM,
495,W 47 St & 10 Ave,3,25,40.76269882,-73.99301222,In Service,1,20,W 47 St & 10 Ave,,,10036,,,false,2016-12-04 03:10:19 AM,
496,E 16 St & 5 Ave,5,47,40.73726186,-73.99238967,In Service,1,40,E 16 St & 5 Ave,,,10011,,,false,2016-12-04 03:09:55 AM,
497,E 17 St & Broadway,12,59,40.73704984,-73.99009296,In Service,1,46,E 17 St & Broadway,,,10003,,,false,2016-12-04 03:10:15 AM,
498,Broadway & W 32 St,24,30,40.74854862,-73.98808416,In Service,1,4,Broadway & W 32 St,,,10001,,,false,2016-12-04 03:09:47 AM,
499,Broadway & W 60 St,17,36,40.76915505,-73.98191841,In Service,1,19,Broadway & W 60 St,,,10023,,,false,2016-12-04 03:08:53 AM,
500,Broadway & W 51 St,40,52,40.76228826,-73.98336183,In Service,1,9,Broadway & W 51 St,,,10019,,,false,2016-12-04 03:10:03 AM,
501,FDR Drive & E 35 St,32,43,40.744219,-73.97121214,In Service,1,10,FDR Drive & E 35 St,,,10016,,,false,2016-12-04 03:09:44 AM,
502,Henry St & Grand St,11,30,40.714215,-73.981346,In Service,1,19,Henry St & Grand St,,,10002,,,false,2016-12-04 03:08:23 AM,
503,E 20 St & Park Ave,7,29,40.73827428,-73.98751968,In Service,1,21,E 20 St & Park Ave,,,10010,,,false,2016-12-04 03:08:59 AM,
504,1 Ave & E 16 St,32,45,40.73221853,-73.98165557,In Service,1,12,1 Ave & E 16 St,,,10003,,,false,2016-12-04 03:10:25 AM,
505,6 Ave & W 33 St,7,36,40.74901271,-73.98848395,In Service,1,28,6 Ave & W 33 St,,,10001,,,false,2016-12-04 03:09:40 AM,
507,E 25 St & 2 Ave,24,47,40.73912601,-73.97973776,In Service,1,20,E 25 St & 2 Ave,,,10010,,,false,2016-12-04 03:07:52 AM,
508,W 46 St & 11 Ave,11,24,40.76341379,-73.99667444,In Service,1,13,W 46 St & 11 Ave,,,10036,,,false,2016-12-04 03:09:37 AM,
509,9 Ave & W 22 St,0,36,40.7454973,-74.00197139,In Service,1,34,9 Ave & W 22 St,,,10011,,,false,2016-12-04 03:06:46 AM,
510,W 51 St & 6 Ave,0,3,40.7606597,-73.98042047,Not In Service,3,0,W 51 St & 6 Ave,,,10104,,,false,2016-08-15 10:12:53 AM,
511,E 14 St & Avenue B,24,33,40.72938685,-73.97772429,In Service,1,9,E 14 St & Avenue B,,,10009,,,false,2016-12-04 03:10:03 AM,
513,W 56 St & 10 Ave,17,27,40.768254,-73.988639,In Service,1,9,W 56 St & 10 Ave,,,10019,,,false,2016-12-04 03:06:56 AM,
514,12 Ave & W 40 St,15,53,40.76087502,-74.00277668,In Service,1,37,12 Ave & W 40 St,,,10018,,,false,2016-12-04 03:08:56 AM,
515,W 43 St & 10 Ave,17,35,40.76009437,-73.99461843,In Service,1,17,W 43 St & 10 Ave,,,10036,,,false,2016-12-04 03:06:47 AM,
516,E 47 St & 1 Ave,24,31,40.75206862,-73.96784384,In Service,1,5,E 47 St & 1 Ave,,,10017,,,false,2016-12-04 03:09:54 AM,
517,Pershing Square South,50,59,40.751581,-73.97791,In Service,1,8,Pershing Square South,,,10017,,,false,2016-12-04 03:09:30 AM,
518,E 39 St & 2 Ave,28,39,40.74780373,-73.9734419,In Service,1,7,E 39 St & 2 Ave,,,10016,,,false,2016-12-04 03:09:35 AM,
519,Pershing Square North,34,61,40.751873,-73.977706,In Service,1,26,Pershing Square North,,,10017,,,false,2016-12-04 03:07:30 AM,
520,W 52 St & 5 Ave,37,39,40.75992262,-73.97648516,In Service,1,0,W 52 St & 5 Ave,,,10022,,,false,2016-12-04 03:08:01 AM,
522,E 51 St & Lexington Ave,47,51,40.75714758,-73.97207836,In Service,1,4,E 51 St & Lexington Ave,,,10022,,,false,2016-12-04 03:09:14 AM,
523,W 38 St & 8 Ave,29,51,40.75466591,-73.99138152,In Service,1,20,W 38 St & 8 Ave,,,10018,,,false,2016-12-04 03:09:04 AM,
524,W 43 St & 6 Ave,48,57,40.75527307,-73.98316936,In Service,1,9,W 43 St & 6 Ave,,,10036,,,false,2016-12-04 03:08:34 AM,
525,W 34 St & 11 Ave,29,39,40.75594159,-74.0021163,In Service,1,10,W 34 St & 11 Ave,,,10001,,,false,2016-12-04 03:07:31 AM,
526,E 33 St & 5 Ave,36,39,40.74765947,-73.98490707,In Service,1,3,E 33 St & 5 Ave,,,10001,,,false,2016-12-04 03:08:28 AM,
527,E 33 St & 2 Ave,48,59,40.744023,-73.976056,In Service,1,11,E 33 St & 2 Ave,,,10016,,,false,2016-12-04 03:09:40 AM,
528,2 Ave & E 31 St,23,39,40.74290902,-73.97706058,In Service,1,14,2 Ave & E 31 St,,,10016,,,false,2016-12-04 02:48:29 AM,
529,W 42 St & 8 Ave,4,41,40.7575699,-73.99098507,In Service,1,34,W 42 St & 8 Ave,,,10036,,,false,2016-12-04 03:08:15 AM,
530,11 Ave & W 59 St,4,36,40.771522,-73.990541,In Service,1,30,11 Ave & W 59 St,,,10069,,,false,2016-12-04 03:07:41 AM,
531,Forsyth St & Broome St,0,39,40.71893904,-73.99266288,In Service,1,39,Forsyth St & Broome St,,,10002,,,false,2016-12-04 03:09:24 AM,
532,S 5 Pl & S 4 St,17,43,40.710451,-73.960876,In Service,1,24,S 5 Pl & S 4 St,,,11211,,,false,2016-12-04 03:08:27 AM,
533,Broadway & W 39 St,34,50,40.75299641,-73.98721619,In Service,1,16,Broadway & W 39 St,,,10018,,,false,2016-12-04 03:10:06 AM,
534,Water - Whitehall Plaza,26,31,40.70255065,-74.0127234,In Service,1,5,Water - Whitehall Plaza,,,10004,,,false,2016-12-04 03:08:58 AM,
536,1 Ave & E 30 St,9,29,40.74144387,-73.97536082,In Service,1,19,1 Ave & E 30 St,,,10016,,,false,2016-12-04 03:09:33 AM,
537,Lexington Ave & E 24 St,0,0,40.74025878,-73.98409214,Not In Service,3,0,Lexington Ave & E 24 St,,,10010,,,false,2016-10-19 12:42:19 PM,
539,Metropolitan Ave & Bedford Ave,11,31,40.71534825,-73.96024116,In Service,1,19,Metropolitan Ave & Bedford Ave,,,11211,,,false,2016-12-04 03:07:31 AM,
540,Lexington Ave & E 29 St,10,30,40.743115553765,-73.982153534889,In Service,1,20,Lexington Ave & E 29 St,,,10016,,,false,2016-12-04 03:09:04 AM,
545,E 23 St & 1 Ave,6,27,40.736502,-73.97809472,In Service,1,20,E 23 St & 1 Ave,,,10010,,,false,2016-12-04 03:08:23 AM,
546,E 30 St & Park Ave S,5,38,40.74444921,-73.98303529,In Service,1,32,E 30 St & Park Ave S,,,10016,,,false,2016-12-04 03:10:03 AM,
2000,Front St & Washington St,4,30,40.70255088,-73.98940236,In Service,1,26,Front St & Washington St,,,11201,,,false,2016-12-04 03:09:26 AM,
2001,Sands St & Navy St,4,15,40.699773,-73.979927,In Service,1,11,Sands St & Navy St,,,11201,,,false,2016-12-04 03:06:44 AM,
2002,Wythe Ave & Metropolitan Ave,0,27,40.716887,-73.963198,In Service,1,26,Wythe Ave & Metropolitan Ave,,,11249,,,false,2016-12-04 03:06:37 AM,
2003,1 Ave & E 18 St,26,39,40.733812191966,-73.98054420948,In Service,1,12,1 Ave & E 18 St,,,10003,,,false,2016-12-04 03:06:39 AM,
2004,6 Ave & Broome St,29,36,40.724399,-74.004704,In Service,1,7,6 Ave & Broome St,,,10002,,,false,2016-12-04 03:09:57 AM,
2005,Railroad Ave & Kay Ave,3,12,40.70531194,-73.97100056,In Service,1,9,Railroad Ave & Kay Ave,,,11249,,,false,2016-12-04 03:09:55 AM,
2006,Central Park S & 6 Ave,11,49,40.76590936,-73.97634151,In Service,1,38,Central Park S & 6 Ave,,,10019,,,false,2016-12-04 03:10:07 AM,
2008,Little West St & 1 Pl,1,24,40.70569254,-74.01677685,In Service,1,21,Little West St & 1 Pl,,,10004,,,false,2016-12-04 03:10:23 AM,
2009,Catherine St & Monroe St,10,35,40.71117444,-73.99682619,In Service,1,25,Catherine St & Monroe St,,,10038,,,false,2016-12-04 03:07:46 AM,
2010,Grand St & Greene St,19,39,40.72165481,-74.00234737,In Service,1,20,Grand St & Greene St,,,10013,,,false,2016-12-04 03:10:29 AM,
2012,E 27 St & 1 Ave,10,36,40.739445,-73.976806,In Service,1,23,E 27 St & 1 Ave,,,10016,,,false,2016-12-04 03:08:48 AM,
2017,E 43 St & 2 Ave,34,39,40.75022392,-73.97121414,In Service,1,3,E 43 St & 2 Ave,,,10017,,,false,2016-12-04 03:06:51 AM,
2021,W 45 St & 8 Ave,19,43,40.75929124,-73.98859651,In Service,1,24,W 45 St & 8 Ave,,,10036,,,false,2016-12-04 03:08:51 AM,
2022,E 60 St & York Ave,17,33,40.759107,-73.959223,In Service,1,15,E 60 St & York Ave,,,10022,,,false,2016-12-04 03:06:49 AM,
2023,E 55 St & Lexington Ave,33,36,40.75968085,-73.97031366,In Service,1,2,E 55 St & Lexington Ave,,,10022,,,false,2016-12-04 03:08:23 AM,
3002,South End Ave & Liberty St,0,25,40.711512,-74.015756,In Service,1,22,South End Ave & Liberty St,,,10006,,,false,2016-12-04 03:09:25 AM,
3016,Kent Ave & N 7 St,0,47,40.720367752985,-73.961650729179,In Service,1,47,Kent Ave & N 7 St,,,11249,,,false,2016-12-04 03:07:36 AM,
3041,Kingston Ave & Herkimer St,17,24,40.67890679,-73.94142771,In Service,1,7,Kingston Ave & Herkimer St,,,11213,,,false,2016-12-04 03:07:58 AM,
3042,Fulton St & Utica Ave,19,19,40.6794268,-73.9298911,In Service,1,0,Fulton St & Utica Ave,,,11233,,,false,2016-12-04 03:08:46 AM,
3043,Lewis Ave & Decatur St,18,19,40.6814598,-73.934903,In Service,1,1,Lewis Ave & Decatur St,,,11233,,,false,2016-12-04 03:07:52 AM,
3044,Albany Ave & Fulton St,24,27,40.6800105,-73.938475,In Service,1,3,Albany Ave & Fulton St,,,11213,,,false,2016-12-04 03:09:00 AM,
3046,Marcus Garvey Blvd & Macon St,15,19,40.682601,-73.938037,In Service,1,4,Marcus Garvey Blvd & Macon St,,,11233,,,false,2016-12-04 03:09:14 AM,
3047,Halsey St & Tompkins Ave,8,21,40.6823687,-73.944118,In Service,1,13,Halsey St & Tompkins Ave,,,11216,,,false,2016-12-04 03:07:15 AM,
3048,Putnam Ave & Nostrand Ave,16,19,40.68402,-73.94977,In Service,1,3,Putnam Ave & Nostrand Ave,,,11216,,,false,2016-12-04 03:07:02 AM,
3049,Cambridge Pl & Gates Ave,14,18,40.68488,-73.96304,In Service,1,4,Cambridge Pl & Gates Ave,,,11238,,,false,2016-12-04 03:07:31 AM,
3050,Putnam Ave & Throop Ave,21,21,40.6851532,-73.94111,In Service,1,0,Putnam Ave & Throop Ave,,,11221,,,false,2016-12-04 03:09:42 AM,
3052,Lewis Ave & Madison St,16,23,40.686312,-73.935775,In Service,1,7,Lewis Ave & Madison St,,,11221,,,false,2016-12-04 03:07:20 AM,
3053,Marcy Ave & Lafayette Ave,19,23,40.6900815,-73.947915,In Service,1,3,Marcy Ave & Lafayette Ave,,,11216,,,false,2016-12-04 03:10:26 AM,
3054,Greene Ave & Throop Ave,15,19,40.6894932,-73.942061,In Service,1,3,Greene Ave & Throop Ave,,,11221,,,false,2016-12-04 03:08:28 AM,
3055,Greene Ave & Nostrand Ave,23,23,40.6883337,-73.950916,In Service,1,0,Greene Ave & Nostrand Ave,,,11216,,,false,2016-12-04 03:08:17 AM,
3056,Kosciuszko St & Nostrand Ave,20,23,40.69072549,-73.95133465,In Service,1,3,Kosciuszko St & Nostrand Ave,,,11216,,,false,2016-12-04 03:08:28 AM,
3057,Kosciuszko St & Tompkins Ave,16,18,40.69128258,-73.9452416,In Service,1,2,Kosciuszko St & Tompkins Ave,,,11216,,,false,2016-12-04 03:06:45 AM,
3058,Lewis Ave & Kosciuszko St,19,24,40.69237074,-73.93705428,In Service,1,5,Lewis Ave & Kosciuszko St,,,11221,,,false,2016-12-04 03:09:07 AM,
3059,Pulaski St & Marcus Garvey Blvd,15,19,40.6933982,-73.939877,In Service,1,3,Pulaski St & Marcus Garvey Blvd,,,11206,,,false,2016-12-04 03:07:03 AM,
3060,Willoughby Ave & Tompkins Ave,16,19,40.69425403,-73.94626915,In Service,1,3,Willoughby Ave & Tompkins Ave,,,11206,,,false,2016-12-04 03:06:50 AM,
3061,Throop Ave & Myrtle Ave,19,21,40.69622937,-73.94371094,In Service,1,1,Throop Ave & Myrtle Ave,,,11206,,,false,2016-12-04 03:10:04 AM,
3062,Myrtle Ave & Marcy Ave,9,23,40.69539817,-73.94954908,In Service,1,14,Myrtle Ave & Marcy Ave,,,11206,,,false,2016-12-04 03:10:05 AM,
3063,Nostrand Ave & Myrtle Ave,4,20,40.69527008,-73.95238108,In Service,1,16,Nostrand Ave & Myrtle Ave,,,11205,,,false,2016-12-04 03:09:37 AM,
3064,Myrtle Ave & Lewis Ave,13,23,40.69681963,-73.93756926,In Service,1,9,Myrtle Ave & Lewis Ave,,,11206,,,false,2016-12-04 03:08:56 AM,
3065,Union Ave & Wallabout St,17,27,40.70029511,-73.95032283,In Service,1,10,Union Ave & Wallabout St,,,11206,,,false,2016-12-04 03:08:13 AM,
3066,Tompkins Ave & Hopkins St,6,19,40.69957608,-73.94708417,In Service,1,12,Tompkins Ave & Hopkins St,,,11206,,,false,2016-12-04 03:08:35 AM,
3067,Broadway & Whipple St,2,27,40.7016657,-73.9437303,In Service,1,25,Broadway & Whipple St,,,11206,,,false,2016-12-04 03:09:55 AM,
3068,Humboldt St & Varet St,4,24,40.7031724,-73.940636,In Service,1,19,Humboldt St & Varet St,,,11206,,,false,2016-12-04 03:09:32 AM,
3069,Lorimer St & Broadway,8,25,40.70411791,-73.94818595,In Service,1,17,Lorimer St & Broadway,,,11206,,,false,2016-12-04 03:09:10 AM,
3070,McKibbin St & Manhattan Ave,18,23,40.70510918,-73.94407279,In Service,1,5,McKibbin St & Manhattan Ave,,,11206,,,false,2016-12-04 03:07:21 AM,
3071,Boerum St & Broadway,19,19,40.70538077,-73.94976519,In Service,1,0,Boerum St & Broadway,,,11206,,,false,2016-12-04 03:06:49 AM,
3072,Leonard St & Boerum St,20,24,40.70583339,-73.94644578,In Service,1,4,Leonard St & Boerum St,,,11206,,,false,2016-12-04 03:09:41 AM,
3073,Division Ave & Hooper St,26,27,40.70691254,-73.95441667,In Service,1,1,Division Ave & Hooper St,,,11211,,,false,2016-12-04 03:08:25 AM,
3074,Montrose Ave & Bushwick Ave,25,31,40.70767788,-73.94016171,In Service,1,5,Montrose Ave & Bushwick Ave,,,11206,,,false,2016-12-04 03:09:30 AM,
3075,Division Ave & Marcy Ave,33,33,40.70708701,-73.95796783,In Service,1,0,Division Ave & Marcy Ave,,,11211,,,false,2016-12-04 03:10:08 AM,
3076,Scholes St & Manhattan Ave,22,24,40.70870368,-73.9448625,In Service,1,2,Scholes St & Manhattan Ave,,,11206,,,false,2016-12-04 03:08:41 AM,
3077,Stagg St & Union Ave,22,33,40.70877084,-73.95095259,In Service,1,10,Stagg St & Union Ave,,,11206,,,false,2016-12-04 03:06:29 AM,
3078,Broadway & Roebling St,21,27,40.70925562,-73.95982218,In Service,1,6,Broadway & Roebling St,,,11211,,,false,2016-12-04 03:06:56 AM,
3079,Leonard St & Grand St,11,24,40.71103537,-73.94714303,In Service,1,12,Leonard St & Grand St,,,11211,,,false,2016-12-04 03:10:26 AM,
3080,S 4 St & Rodney St,15,21,40.70934,-73.95608,In Service,1,6,S 4 St & Rodney St,,,11211,,,false,2016-12-04 03:08:17 AM,
3081,Graham Ave & Grand St,23,23,40.711863,-73.944024,In Service,1,0,Graham Ave & Grand St,,,11211,,,false,2016-12-04 03:08:14 AM,
3082,Hope St & Union Ave,20,25,40.71167351,-73.95141312,In Service,1,5,Hope St & Union Ave,,,11211,,,false,2016-12-04 03:07:16 AM,
3083,Bushwick Ave & Powers St,28,30,40.71247661,-73.94100005,In Service,1,2,Bushwick Ave & Powers St,,,11211,,,false,2016-12-04 03:06:53 AM,
3084,Devoe St & Leonard St,18,19,40.71348658,-73.94792458,In Service,1,1,Devoe St & Leonard St,,,11211,,,false,2016-12-04 03:07:44 AM,
3085,Roebling St & N 4 St,6,25,40.71469,-73.95739,In Service,1,19,Roebling St & N 4 St,,,11211,,,false,2016-12-04 03:09:28 AM,
3086,Graham Ave & Conselyea St,23,25,40.715143,-73.944507,In Service,1,1,Graham Ave & Conselyea St,,,11211,,,false,2016-12-04 03:09:28 AM,
3087,Metropolitan Ave & Meeker Ave,25,30,40.71413311,-73.95234386,In Service,1,4,Metropolitan Ave & Meeker Ave,,,11211,,,false,2016-12-04 03:09:44 AM,
3088,Union Ave & Jackson St,17,19,40.7160751,-73.952029,In Service,1,2,Union Ave & Jackson St,,,11211,,,false,2016-12-04 03:07:02 AM,
3089,Leonard St & Meeker Ave,0,0,40.717318403856,-73.948202133179,Not In Service,3,0,Leonard St & Meeker Ave,,,11211,,,false,1969-12-31 07:00:00 PM,
3090,N 8 St & Driggs Ave,4,31,40.71774592,-73.95600096,In Service,1,26,N 8 St & Driggs Ave,,,11211,,,false,2016-12-04 03:09:11 AM,
3091,Frost St & Meeker St,28,31,40.71764,-73.94882,In Service,1,3,Frost St & Meeker St,,,11211,,,false,2016-12-04 03:06:46 AM,
3092,Berry St & N 8 St,6,27,40.7190095,-73.95852515,In Service,1,21,Berry St & N 8 St,,,11249,,,false,2016-12-04 03:06:41 AM,
3093,N 6 St & Bedford Ave,9,28,40.71745169,-73.95850939,In Service,1,19,N 6 St & Bedford Ave,,,11211,,,false,2016-12-04 03:09:59 AM,
3094,Graham Ave & Withers St,17,18,40.7169811,-73.94485918,In Service,1,1,Graham Ave & Withers St,,,11211,,,false,2016-12-04 03:09:46 AM,
3095,Graham Ave & Herbert St,22,23,40.71929301,-73.94500379,In Service,1,1,Graham Ave & Herbert St,,,11222,,,false,2016-12-04 03:06:36 AM,
3096,Union Ave & N 12 St,9,39,40.71924,-73.95242,In Service,1,30,Union Ave & N 12 St,,,11211,,,false,2016-12-04 03:07:40 AM,
3098,Leonard St & Bayard St,43,43,40.71928,-73.94861,In Service,1,0,Leonard St & Bayard St,,,11211,,,false,2016-12-04 03:09:52 AM,
3099,Leonard St & Manhattan Ave,17,19,40.721522403393,-73.948982656002,In Service,1,2,Leonard St & Manhattan Ave,,,11222,,,false,2016-12-04 03:07:38 AM,
3100,Nassau Ave & Newell St,34,39,40.7248125644,-73.947526216507,In Service,1,5,Nassau Ave & Newell St,,,11222,,,false,2016-12-04 03:10:13 AM,
3101,N 12 St & Bedford Ave,2,27,40.72079821,-73.95484712,In Service,1,25,N 12 St & Bedford Ave,,,11211,,,false,2016-12-04 03:09:13 AM,
3102,Driggs Ave & Lorimer St,10,27,40.72179134,-73.9504154,In Service,1,17,Driggs Ave & Lorimer St,,,11222,,,false,2016-12-04 03:08:07 AM,
3103,N 11 St & Wythe Ave,3,27,40.72153267,-73.95782357,In Service,1,24,N 11 St & Wythe Ave,,,11249,,,false,2016-12-04 03:10:08 AM,
3105,N 15 St & Wythe Ave,16,24,40.724055,-73.955736,In Service,1,8,N 15 St & Wythe Ave,,,11222,,,false,2016-12-04 03:07:53 AM,
3106,Driggs Ave & N Henry St,16,19,40.72325,-73.94308,In Service,1,3,Driggs Ave & N Henry St,,,11222,,,false,2016-12-04 03:06:56 AM,
3107,Bedford Ave & Nassau Ave,28,39,40.72311651,-73.95212324,In Service,1,11,Bedford Ave & Nassau Ave,,,11222,,,false,2016-12-04 03:07:26 AM,
3108,Nassau Ave & Russell St,17,24,40.72557,-73.94434,In Service,1,6,Nassau Ave & Russell St,,,11222,,,false,2016-12-04 03:07:08 AM,
3109,Banker St & Meserole Ave,23,31,40.72606,-73.95621,In Service,1,8,Banker St & Meserole Ave,,,11222,,,false,2016-12-04 03:07:01 AM,
3110,Meserole Ave & Manhattan Ave,22,27,40.72708584,-73.95299117,In Service,1,5,Meserole Ave & Manhattan Ave,,,11222,,,false,2016-12-04 03:07:18 AM,
3111,Norman Ave & Leonard St,23,25,40.7258483,-73.95064893,In Service,1,2,Norman Ave & Leonard St,,,11222,,,false,2016-12-04 03:09:59 AM,
3112,Milton St & Franklin St,20,33,40.72906,-73.95779,In Service,1,11,Milton St & Franklin St,,,11222,,,false,2016-12-04 03:09:41 AM,
3113,Greenpoint Ave & Manhattan Ave,25,27,40.73026,-73.95394,In Service,1,2,Greenpoint Ave & Manhattan Ave,,,11222,,,false,2016-12-04 03:07:19 AM,
3114,India St & East River,17,23,40.73165141,-73.96161892,In Service,1,6,India St & East River,,,11222,,,false,2016-12-04 03:07:57 AM,
3115,India St & Manhattan Ave,13,34,40.73232194,-73.9550858,In Service,1,21,India St & Manhattan Ave,,,11222,,,false,2016-12-04 03:09:33 AM,
3116,Huron St & Franklin St,29,35,40.73266,-73.95826,In Service,1,6,Huron St & Franklin St,,,11222,,,false,2016-12-04 03:09:30 AM,
3117,Franklin St & Dupont St,25,27,40.73564,-73.95866,In Service,1,2,Franklin St & Dupont St,,,11222,,,false,2016-12-04 03:09:29 AM,
3118,McGuinness Blvd & Eagle St,28,30,40.73555,-73.95284,In Service,1,2,McGuinness Blvd & Eagle St,,,11222,,,false,2016-12-04 03:06:48 AM,
3119,Vernon Blvd & 50 Ave,37,45,40.74232744,-73.95411749,In Service,1,8,Vernon Blvd & 50 Ave,,,11101,,,false,2016-12-04 03:08:39 AM,
3120,Center Blvd & Borden Ave,4,20,40.74161,-73.96044,In Service,1,16,Center Blvd & Borden Ave,,,11101,,,false,2016-12-04 03:09:58 AM,
3121,Jackson Ave & 46 Rd,15,27,40.74524768,-73.94733276,In Service,1,12,Jackson Ave & 46 Rd,,,11101,,,false,2016-12-04 03:10:11 AM,
3122,48 Ave & 5 St,13,31,40.744363287067,-73.955873250961,In Service,1,18,48 Ave & 5 St,,,11109,,,false,2016-12-04 03:07:27 AM,
3123,31 St & Thomson Ave,14,27,40.74469738,-73.93540375,In Service,1,13,31 St & Thomson Ave,,,11101,,,false,2016-12-04 03:06:35 AM,
3124,46 Ave & 5 St,5,27,40.74731,-73.95451,In Service,1,22,46 Ave & 5 St,,,11101,,,false,2016-12-04 03:09:55 AM,
3125,45 Rd & 11 St,18,23,40.74708586,-73.94977234,In Service,1,5,45 Rd & 11 St,,,11101,,,false,2016-12-04 03:07:03 AM,
3126,44 Dr & Jackson Ave,27,34,40.74718234,-73.9432635,In Service,1,7,44 Dr & Jackson Ave,,,11101,,,false,2016-12-04 03:06:34 AM,
3127,9 St & 44 Rd,16,35,40.74966,-73.9521,In Service,1,19,9 St & 44 Rd,,,11101,,,false,2016-12-04 03:07:57 AM,
3128,21 St & 43 Ave,4,23,40.75052534,-73.94594845,In Service,1,19,21 St & 43 Ave,,,11101,,,false,2016-12-04 03:10:22 AM,
3129,Queens Plaza North & Crescent St,0,31,40.75110165,-73.94073717,In Service,1,30,Queens Plaza North & Crescent St,,,11101,,,false,2016-12-04 03:10:02 AM,
3131,E 68 St & 3 Ave,31,31,40.767128403495,-73.962246179581,In Service,1,0,E 68 St & 3 Ave,,,10065,,,false,2016-12-04 03:10:03 AM,
3132,E 59 St & Madison Ave,32,35,40.76350532,-73.97109243,In Service,1,2,E 59 St & Madison Ave,,,10022,,,false,2016-12-04 03:07:49 AM,
3134,3 Ave & E 62 St,30,51,40.76312584,-73.96526895,In Service,1,20,3 Ave & E 62 St,,,10065,,,false,2016-12-04 03:07:11 AM,
3135,E 75 St & 3 Ave,38,41,40.77112927,-73.95772297,In Service,1,3,E 75 St & 3 Ave,,,10021,,,false,2016-12-04 03:06:57 AM,
3137,5 Ave & E 73 St,6,31,40.77282817,-73.96685276,In Service,1,25,5 Ave & E 73 St,,,10021,,,false,2016-12-04 03:08:53 AM,
3139,E 72 St & Park Ave,37,43,40.771182875407,-73.964094221592,In Service,1,6,E 72 St & Park Ave,,,10021,,,false,2016-12-04 03:07:23 AM,
3140,1 Ave & E 78 St,8,55,40.77140426,-73.9535166,In Service,1,46,1 Ave & E 78 St,,,10075,,,false,2016-12-04 03:07:53 AM,
3141,1 Ave & E 68 St,43,59,40.76500525,-73.95818491,In Service,1,16,1 Ave & E 68 St,,,10065,,,false,2016-12-04 03:10:27 AM,
3142,1 Ave & E 62 St,29,41,40.7612274,-73.96094022,In Service,1,10,1 Ave & E 62 St,,,10065,,,false,2016-12-04 03:09:45 AM,
3143,5 Ave & E 78 St,30,47,40.7768286344,-73.963887691498,In Service,1,16,5 Ave & E 78 St,,,10075,,,false,2016-12-04 03:06:58 AM,
3144,E 81 St & Park Ave,42,46,40.77677702,-73.9590097,In Service,1,3,E 81 St & Park Ave,,,10028,,,false,2016-12-04 03:07:29 AM,
3145,E 84 St & Park Ave,21,45,40.77862688,-73.95772073,In Service,1,24,E 84 St & Park Ave,,,10028,,,false,2016-12-04 03:08:54 AM,
3146,E 81 St & 3 Ave,41,47,40.77573034,-73.9567526,In Service,1,6,E 81 St & 3 Ave,,,10028,,,false,2016-12-04 03:09:43 AM,
3147,E 85 St & 3 Ave,9,39,40.77801203,-73.95407149,In Service,1,30,E 85 St & 3 Ave,,,10028,,,false,2016-12-04 03:07:03 AM,
3148,E 84 St & 1 Ave,2,27,40.77565541,-73.95068615,In Service,1,25,E 84 St & 1 Ave,,,10028,,,false,2016-12-04 03:08:31 AM,
3150,E 85 St & York Ave,21,47,40.77536905,-73.94803392,In Service,1,26,E 85 St & York Ave,,,10028,,,false,2016-12-04 03:08:39 AM,
3151,E 81 St & York Ave,12,31,40.7728384,-73.94989233,In Service,1,19,E 81 St & York Ave,,,10028,,,false,2016-12-04 03:09:05 AM,
3152,3 Ave & E 71 St,24,27,40.76873687,-73.96119945,In Service,1,3,3 Ave & E 71 St,,,10021,,,false,2016-12-04 03:09:36 AM,
3153,E 71 St & 2 Ave,0,26,40.768175467422,-73.959102630615,Not In Service,3,0,E 71 St & 2 Ave,,,10021,,,false,2016-10-25 10:55:55 AM,
3155,Lexington Ave & E 63 St,36,39,40.76440023,-73.96648977,In Service,1,3,Lexington Ave & E 63 St,,,10065,,,false,2016-12-04 03:10:24 AM,
3156,E 72 St & York Ave,36,39,40.76663814,-73.95348296,In Service,1,2,E 72 St & York Ave,,,10021,,,false,2016-12-04 03:08:41 AM,
3157,East End Ave & E 86 St,14,27,40.77518615,-73.94446054,In Service,1,13,East End Ave & E 86 St,,,10028,,,false,2016-12-04 03:10:20 AM,
3158,W 63 St & Broadway,14,31,40.77163851,-73.98261428,In Service,1,14,W 63 St & Broadway,,,10023,,,false,2016-12-04 03:06:36 AM,
3159,W 67 St & Broadway,9,31,40.77492513,-73.98266566,In Service,1,22,W 67 St & Broadway,,,10023,,,false,2016-12-04 03:09:38 AM,
3160,Central Park West & W 76 St,23,39,40.77896784,-73.97374737,In Service,1,15,Central Park West & W 76 St,,,10024,,,false,2016-12-04 03:09:52 AM,
3161,W 76 St & Columbus Ave,50,59,40.780183972424,-73.977285325527,In Service,1,9,W 76 St & Columbus Ave,,,10023,,,false,2016-12-04 03:10:00 AM,
3162,W 78 St & Broadway,34,39,40.78339981,-73.98093133,In Service,1,5,W 78 St & Broadway,,,10024,,,false,2016-12-04 03:09:14 AM,
3163,Central Park West & W 68 St,17,43,40.7734066,-73.97782542,In Service,1,26,Central Park West & W 68 St,,,10023,,,false,2016-12-04 03:06:42 AM,
3164,Columbus Ave & W 72 St,50,67,40.7770575,-73.97898475,In Service,1,12,Columbus Ave & W 72 St,,,10023,,,false,2016-12-04 03:07:50 AM,
3165,Central Park West & W 72 St,15,51,40.775793766837,-73.976205736399,In Service,1,36,Central Park West & W 72 St,,,10023,,,false,2016-12-04 03:08:04 AM,
3166,Riverside Dr & W 72 St,23,41,40.780577990103,-73.985624313354,In Service,1,18,Riverside Dr & W 72 St,,,10023,,,false,2016-12-04 03:09:26 AM,
3167,Amsterdam Ave & W 73 St,30,55,40.779668090073,-73.980930447578,In Service,1,25,Amsterdam Ave & W 73 St,,,10023,,,false,2016-12-04 03:09:18 AM,
3168,Central Park West & W 85 St,6,31,40.78472675,-73.96961715,In Service,1,24,Central Park West & W 85 St,,,10024,,,false,2016-12-04 03:09:30 AM,
3169,Riverside Dr & W 82 St,35,39,40.78720869,-73.98128127,In Service,1,3,Riverside Dr & W 82 St,,,10024,,,false,2016-12-04 03:07:10 AM,
3170,W 84 St & Columbus Ave,30,35,40.78499979,-73.97283406,In Service,1,4,W 84 St & Columbus Ave,,,10024,,,false,2016-12-04 03:08:36 AM,
3171,Amsterdam Ave & W 82 St,33,39,40.78524672,-73.97667321,In Service,1,6,Amsterdam Ave & W 82 St,,,10024,,,false,2016-12-04 03:09:58 AM,
3172,W 74 St & Columbus Ave,17,27,40.7785669,-73.97754961,In Service,1,10,W 74 St & Columbus Ave,,,10023,,,false,2016-12-04 03:10:04 AM,
3173,Riverside Blvd & W 67 St,7,43,40.777507027548,-73.988885879517,In Service,1,36,Riverside Blvd & W 67 St,,,10069,,,false,2016-12-04 03:09:11 AM,
3175,W 70 St & Amsterdam Ave,29,31,40.77748046,-73.98288594,In Service,1,2,W 70 St & Amsterdam Ave,,,10023,,,false,2016-12-04 03:09:17 AM,
3176,W 64 St & West End Ave,32,43,40.77452835,-73.98753759,In Service,1,11,W 64 St & West End Ave,,,10023,,,false,2016-12-04 03:10:29 AM,
3177,W 84 St & Broadway,59,63,40.7867947,-73.977112,In Service,1,4,W 84 St & Broadway,,,10024,,,false,2016-12-04 03:08:44 AM,
3178,Riverside Dr & W 78 St,35,39,40.78414472,-73.98362492,In Service,1,4,Riverside Dr & W 78 St,,,10024,,,false,2016-12-04 03:07:51 AM,
3179,Park Ave & Marcus Garvey Blvd,22,23,40.698617,-73.941342,In Service,1,1,Park Ave & Marcus Garvey Blvd,,,11206,,,false,2016-12-04 03:06:52 AM,
3180,Brooklyn Bridge Park - Pier 2,20,31,40.69878,-73.99712,In Service,1,11,Brooklyn Bridge Park - Pier 2,,,11201,,,false,2016-12-04 03:08:13 AM,
3183,Exchange Place,20,30,40.7162469,-74.0334588,In Service,1,5,Exchange Place,,,07302,,,false,2016-12-04 03:10:14 AM,
3184,Paulus Hook,0,14,40.7141454,-74.0335519,In Service,1,10,Paulus Hook,,,07302,,,false,2016-12-04 03:08:39 AM,
3185,City Hall,8,22,40.7177325,-74.043845,In Service,1,12,City Hall,,,07302,,,false,2016-12-04 03:06:52 AM,
3186,Grove St PATH,31,42,40.719586116472,-74.043117463589,In Service,1,10,Grove St PATH,,,07302,,,false,2016-12-04 03:08:11 AM,
3187,Warren St,8,22,40.7211236,-74.03805095,In Service,1,12,Warren St,,,10007,,,false,2016-12-04 03:09:41 AM,
3188,NJCU,12,18,40.7101087,-74.0858489,In Service,1,6,NJCU,,,07305,,,false,2016-12-04 03:09:03 AM,
3189,West Side Light Rail,9,14,40.714402,-74.0887723,In Service,1,5,West Side Light Rail,,,07305,,,false,2016-12-04 03:08:08 AM,
3190,Garfield Ave Station,5,14,40.71046702338,-74.070038795471,In Service,1,9,Garfield Ave Station,,,07305,,,false,2016-12-04 03:07:50 AM,
3191,Union St,7,18,40.7182113,-74.0836394,In Service,1,10,Union St,,,07304,,,false,2016-12-04 03:08:02 AM,
3192,Liberty Light Rail,14,22,40.7112423,-74.0557013,In Service,1,8,Liberty Light Rail,,,07304,,,false,2016-12-04 03:08:37 AM,
3193,Lincoln Park,16,18,40.724605099887,-74.078405946493,In Service,1,2,Lincoln Park,,,07304,,,false,2016-12-04 03:09:35 AM,
3194,McGinley Square,16,22,40.7256033,-74.06763,In Service,1,5,McGinley Square,,,07304,,,false,2016-12-04 03:06:40 AM,
3195,Sip Ave,27,33,40.7309459,-74.0638906,In Service,1,5,Sip Ave,,,07306,,,false,2016-12-04 03:08:34 AM,
3196,Riverview Park,13,18,40.7443187,-74.0439909,In Service,1,2,Riverview Park,,,07307,,,false,2016-12-04 03:07:29 AM,
3197,North St,14,18,40.752559,-74.044725,In Service,1,3,North St,,,07307,,,false,2016-12-04 03:08:23 AM,
3198,Heights Elevator,11,18,40.74871594538,-74.040443301201,In Service,1,6,Heights Elevator,,,07307,,,false,2016-12-04 03:08:59 AM,
3199,Newport Pkwy,9,14,40.7287448,-74.0321082,In Service,1,3,Newport Pkwy,,,07310,,,false,2016-12-04 03:09:53 AM,
3200,MLK Light Rail,12,18,40.7111305,-74.0788855,In Service,1,6,MLK Light Rail,,,07304,,,false,2016-12-04 03:09:20 AM,
3201,Dey St,14,18,40.737711,-74.066921,In Service,1,4,Dey St,,,10007,,,false,2016-12-04 03:09:53 AM,
3202,Newport PATH,5,18,40.7272235,-74.0337589,In Service,1,13,Newport PATH,,,07310,,,false,2016-12-04 03:09:21 AM,
3203,Hamilton Park,15,26,40.727595966,-74.044247311,In Service,1,10,Hamilton Park,,,07302,,,false,2016-12-04 03:10:26 AM,
3205,JC Medical Center,15,22,40.716539780992,-74.049637913704,In Service,1,7,JC Medical Center,,,07302,,,false,2016-12-04 03:08:54 AM,
3206,Hilltop,26,26,40.7311689,-74.0575736,In Service,1,0,Hilltop,,,07306,,,false,2016-12-04 03:07:56 AM,
3207,Oakland Ave,17,26,40.7376037,-74.0524783,In Service,1,8,Oakland Ave,,,07306,,,false,2016-12-04 03:09:00 AM,
3209,Brunswick St,11,22,40.7241765,-74.0506564,In Service,1,9,Brunswick St,,,07302,,,false,2016-12-04 03:08:14 AM,
3210,Pershing Field,15,18,40.742677141,-74.051788633,In Service,1,3,Pershing Field,,,07306,,,false,2016-12-04 03:09:59 AM,
3211,Newark Ave,8,22,40.72152515,-74.046304543,In Service,1,13,Newark Ave,,,07302,,,false,2016-12-04 03:09:17 AM,
3212,Christ Hospital,12,22,40.734785818,-74.050443636,In Service,1,10,Christ Hospital,,,07306,,,false,2016-12-04 03:10:13 AM,
3213,Van Vorst Park,13,21,40.71848892,-74.047726625,In Service,1,7,Van Vorst Park,,,07302,,,false,2016-12-04 03:07:44 AM,
3214,Essex Light Rail,8,22,40.7127742,-74.0364857,In Service,1,9,Essex Light Rail,,,07302,,,false,2016-12-04 03:09:49 AM,
3215,Central Ave,16,18,40.7467299,-74.0492509,In Service,1,1,Central Ave,,,07307,,,false,2016-12-04 03:10:15 AM,
3216,Columbia Park,13,18,40.6970299,-74.0969366,In Service,1,4,Columbia Park,,,07305,,,false,2016-12-04 03:09:53 AM,
3217,Bayside Park,13,18,40.698650544,-74.082079678,In Service,1,2,Bayside Park,,,07305,,,false,2016-12-04 03:07:37 AM,
3220,5 Corners Library,13,18,40.73496102001,-74.059503078461,In Service,1,5,5 Corners Library,,,07306,,,false,2016-12-04 03:09:12 AM,
3221,47 Ave & 31 St,8,27,40.743,-73.93561,In Service,1,19,47 Ave & 31 St,,,11101,,,false,2016-12-04 03:07:06 AM,
3223,E 55 St & 3 Ave,52,55,40.758996559605,-73.968653976917,In Service,1,2,E 55 St & 3 Ave,,,10022,,,false,2016-12-04 03:07:02 AM,
3224,W 13 St & Hudson St,2,39,40.739973541034,-74.005138725042,In Service,1,37,W 13 St & Hudson St,,,10014,,,false,2016-12-04 03:09:46 AM,
3225,Baldwin at Montgomery,11,14,40.7236589,-74.0641943,In Service,1,3,Baldwin at Montgomery,,,07306,,,false,2016-12-04 03:07:02 AM,
3226,W 82 St & Central Park West,34,45,40.78275,-73.97137,In Service,1,9,W 82 St & Central Park West,,,10024,,,false,2016-12-04 03:10:20 AM,
3230,Penn Station Valet,7,7,40.751283596962,-73.996924459934,Not In Service,3,0,Penn Station Valet,,,10001,,,false,2016-12-04 03:07:36 AM,
3231,E 67 St & Park Ave,39,39,40.767800801481,-73.965920805931,In Service,1,0,E 67 St & Park Ave,,,10065,,,false,2016-12-04 03:09:01 AM,
3232,Bond St & Fulton St,12,31,40.689621887903,-73.983042687178,In Service,1,18,Bond St & Fulton St,,,11201,,,false,2016-12-04 03:10:08 AM,
3233,E 48 St & 5 Ave,32,39,40.757245679117,-73.978059142828,In Service,1,7,E 48 St & 5 Ave,,,10020,,,false,2016-12-04 03:08:25 AM,
3235,E 41 St & Madison Ave,29,31,40.752165280622,-73.979921936989,In Service,1,2,E 41 St & Madison Ave,,,10017,,,false,2016-12-04 03:09:27 AM,
3236,W 42 St & Dyer Ave,28,33,40.758984813996,-73.993799686432,In Service,1,5,W 42 St & Dyer Ave,,,10036,,,false,2016-12-04 03:08:53 AM,
3237,21 St & 41 Ave,7,25,40.753833434376,-73.942676782608,In Service,1,18,21 St & 41 Ave,,,11101,,,false,2016-12-04 03:06:59 AM,
3238,E 80 St & 2 Ave,7,37,40.773913902381,-73.954395353794,In Service,1,30,E 80 St & 2 Ave,,,10028,,,false,2016-12-04 03:08:30 AM,
3241,Monroe St & Tompkins Ave,16,19,40.686203,-73.944694,In Service,1,3,Monroe St & Tompkins Ave,,,11216,,,false,2016-12-04 03:07:34 AM,
3242,Schermerhorn St & Court St,38,39,40.69102925678,-73.991833627224,In Service,1,1,Schermerhorn St & Court St,,,11201,,,false,2016-12-04 03:08:18 AM,
3243,E 58 St & 1 Ave,18,29,40.758923863777,-73.962262272835,In Service,1,9,E 58 St & 1 Ave,,,10022,,,false,2016-12-04 03:07:50 AM,
3244,University Pl & E 8 St,14,31,40.731437240852,-73.994903415442,In Service,1,16,University Pl & E 8 St,,,10003,,,false,2016-12-04 03:08:21 AM,
3246,Montague St & Clinton St,21,23,40.694281141397,-73.992300331593,In Service,1,0,Montague St & Clinton St,,,11201,,,false,2016-12-04 03:08:50 AM,
3249,Verona Pl & Fulton St,12,15,40.680356084043,-73.947679102421,In Service,1,3,Verona Pl & Fulton St,,,11216,,,false,2016-12-04 03:06:49 AM,
3255,8 Ave & W 31 St,3,67,40.750585347021,-73.994684815407,In Service,1,63,8 Ave & W 31 St,,,10001,,,false,2016-12-04 03:07:55 AM,
3256,Pier 40 - Hudson River Park,7,22,40.727714077778,-74.011295735836,In Service,1,9,Pier 40 - Hudson River Park,,,10014,,,false,2016-12-04 03:07:48 AM,
3258,W 27 St & 10 Ave,0,37,40.750181563257,-74.002184271812,In Service,1,32,W 27 St & 10 Ave,,,10001,,,false,2016-12-04 03:06:41 AM,
3259,9 Ave & W 28 St,0,27,40.749370241933,-73.999233841896,In Service,1,23,9 Ave & W 28 St,,,10001,,,false,2016-12-04 03:07:24 AM,
3260,Mercer St & Bleecker St,13,31,40.727063633483,-73.996621370316,In Service,1,18,Mercer St & Bleecker St,,,10012,,,false,2016-12-04 03:09:37 AM,
3263,Cooper Square & E 7 St,24,59,40.7292364991,-73.990868031979,In Service,1,34,Cooper Square & E 7 St,,,10003,,,false,2016-12-04 03:07:36 AM,
3264,E 61 St & Park Ave,40,43,40.764210071691,-73.969104588032,In Service,1,3,E 61 St & Park Ave,,,10065,,,false,2016-12-04 03:10:26 AM,
3265,E 2 St & 2 Ave,4,31,40.724563429043,-73.989443778992,In Service,1,27,E 2 St & 2 Ave,,,10003,,,false,2016-12-04 03:08:18 AM,
3267,Morris Canal,11,14,40.712418823757,-74.038525521755,In Service,1,3,Morris Canal,,,07302,,,false,2016-12-04 03:06:37 AM,
3268,Lafayette Park,8,14,40.713463826692,-74.062858521938,In Service,1,5,Lafayette Park,,,07304,,,false,2016-12-04 03:09:52 AM,
3269,Brunswick & 6th,5,14,40.726011729646,-74.050388932228,In Service,1,9,Brunswick & 6th,,,07302,,,false,2016-12-04 03:06:41 AM,
3270,Jersey & 6th St,11,14,40.725457821909,-74.045526087284,In Service,1,3,Jersey & 6th St,,,07302,,,false,2016-12-04 03:08:42 AM,
3271,Danforth Light Rail,4,11,40.692609460685,-74.088090062141,In Service,1,7,Danforth Light Rail,,,07305,,,false,2016-12-04 03:09:04 AM,
3272,Jersey & 3rd,4,14,40.723400700348,-74.04575407505,In Service,1,9,Jersey & 3rd,,,07302,,,false,2016-12-04 03:08:21 AM,
3273,Manila & 1st,17,18,40.72165072488,-74.042884111404,In Service,1,1,Manila & 1st,,,07302,,,false,2016-12-04 03:09:13 AM,
3274,Bethune Center,11,14,40.704957516729,-74.085930883884,In Service,1,3,Bethune Center,,,07305,,,false,2016-12-04 03:08:03 AM,
3275,Columbus Drive,10,14,40.718355198232,-74.038914442062,In Service,1,3,Columbus Drive,,,07302,,,false,2016-12-04 03:10:17 AM,
3276,Marin Light Rail,15,26,40.714824504193,-74.042980670929,In Service,1,10,Marin Light Rail,,,07302,,,false,2016-12-04 03:08:51 AM,
3277,Communipaw & Berry Lane,13,14,40.714364467813,-74.066559970379,In Service,1,1,Communipaw & Berry Lane,,,07304,,,false,2016-12-04 03:09:33 AM,
3278,Monmouth and 6th,9,14,40.725685483629,-74.048790335655,In Service,1,4,Monmouth and 6th,,,07302,,,false,2016-12-04 03:09:06 AM,
3279,Dixon Mills,5,18,40.721630142638,-74.049967825413,In Service,1,11,Dixon Mills,,,07302,,,false,2016-12-04 03:08:13 AM,
3280,Astor Place,13,14,40.719282200707,-74.071261882782,In Service,1,1,Astor Place,,,07306,,,false,2016-12-04 03:10:15 AM,
3281,Leonard Gordon Park,12,14,40.745909966316,-74.05727148056,In Service,1,1,Leonard Gordon Park,,,07307,,,false,2016-12-04 03:09:13 AM,
3282,5 Ave & E 88 St,17,38,40.78307,-73.95939,In Service,1,19,5 Ave & E 88 St,,,10128,,,false,2016-12-04 03:07:16 AM,
3283,W 89 St & Columbus Ave,28,43,40.7882213,-73.97041561,In Service,1,15,W 89 St & Columbus Ave,,,10024,,,false,2016-12-04 03:09:01 AM,
3284,E 88 St & Park Ave,37,41,40.78141070019,-73.95595908165,In Service,1,4,E 88 St & Park Ave,,,10128,,,false,2016-12-04 03:09:21 AM,
3285,W 87 St  & Amsterdam Ave,32,43,40.78839,-73.9747,In Service,1,9,W 87 St  & Amsterdam Ave,,,10024,,,false,2016-12-04 03:08:18 AM,
3286,E 89 St & 3 Ave,25,35,40.7806284,-73.9521667,In Service,1,10,E 89 St & 3 Ave,,,10128,,,false,2016-12-04 03:07:06 AM,
3288,E 88 St & 1 Ave,5,39,40.778301,-73.9488134,In Service,1,34,E 88 St & 1 Ave,,,10128,,,false,2016-12-04 03:09:11 AM,
3289,W 90 St & Amsterdam Ave,21,31,40.790179480951,-73.972889184952,In Service,1,10,W 90 St & Amsterdam Ave,,,10024,,,false,2016-12-04 03:08:18 AM,
3290,E 89 St & York Ave,27,35,40.7779453,-73.946041,In Service,1,8,E 89 St & York Ave,,,10128,,,false,2016-12-04 03:09:53 AM,
3292,5 Ave & E 93 St,18,43,40.7857851,-73.957481,In Service,1,25,5 Ave & E 93 St,,,10128,,,false,2016-12-04 03:09:09 AM,
3293,W 92 St & Broadway,20,24,40.7921,-73.9739,In Service,1,4,W 92 St & Broadway,,,10025,,,false,2016-12-04 03:10:28 AM,
3294,E 91 St & Park Ave,31,35,40.7835016,-73.955327,In Service,1,4,E 91 St & Park Ave,,,10128,,,false,2016-12-04 03:09:41 AM,
3295,Central Park W & W 96 St,52,59,40.79127,-73.964839,In Service,1,7,Central Park W & W 96 St,,,10025,,,false,2016-12-04 03:09:07 AM,
3296,Coming Soon: E 93 St & 2 Ave,0,0,40.78250564729,-73.94887804985,Not In Service,3,0,Coming Soon: E 93 St & 2 Ave,,,10128,,,false,1969-12-31 07:00:00 PM,
3297,6 St & 7 Ave,15,21,40.6686627,-73.97988067,In Service,1,6,6 St & 7 Ave,,,11215,,,false,2016-12-04 03:07:43 AM,
3298,Warren St & Court St,16,23,40.686371,-73.99383324,In Service,1,7,Warren St & Court St,,,11201,,,false,2016-12-04 03:10:27 AM,
3299,Coming Soon: E 98 St & Lexington Ave,0,0,40.787278535021,-73.950105160475,Not In Service,3,0,Coming Soon: E 98 St & Lexington Ave,,,10029,,,false,1969-12-31 07:00:00 PM,
3300,Prospect Park West & 8 St,21,25,40.665146815338,-73.976376056671,In Service,1,4,Prospect Park West & 8 St,,,11215,,,false,2016-12-04 03:07:11 AM,
3301,Columbus Ave & W 95 St,34,39,40.7919557,-73.968087,In Service,1,5,Columbus Ave & W 95 St,,,10025,,,false,2016-12-04 03:06:57 AM,
3302,Columbus Ave & W 103 St,22,23,40.7969347,-73.9643412291,In Service,1,1,Columbus Ave & W 103 St,,,10025,,,false,2016-12-04 03:10:15 AM,
3303,Butler St & Court St,20,25,40.6849894,-73.99440329,In Service,1,5,Butler St & Court St,,,11231,,,false,2016-12-04 03:08:50 AM,
3304,6 Ave & 9 St,25,27,40.668127,-73.98377641,In Service,1,2,6 Ave & 9 St,,,10011,,,false,2016-12-04 03:09:03 AM,
3305,E 91 St & 2 Ave,3,39,40.781122299342,-73.949655890465,In Service,1,35,E 91 St & 2 Ave,,,10128,,,false,2016-12-04 03:06:40 AM,
3306,10 St & 7 Ave,18,23,40.6662078,-73.98199886,In Service,1,5,10 St & 7 Ave,,,11215,,,false,2016-12-04 03:09:42 AM,
3307,West End Ave & W 94 St,23,31,40.7941654,-73.974124,In Service,1,8,West End Ave & W 94 St,,,10025,,,false,2016-12-04 03:09:35 AM,
3308,Kane St & Clinton St,24,27,40.6861758,-73.99645295,In Service,1,2,Kane St & Clinton St,,,11231,,,false,2016-12-04 03:07:32 AM,
3309,E 97 St & 3 Ave,24,30,40.7859201,-73.94860294,In Service,1,6,E 97 St & 3 Ave,,,10029,,,false,2016-12-04 03:07:46 AM,
3310,14 St & 7 Ave,21,24,40.663779,-73.98396846,In Service,1,3,14 St & 7 Ave,,,10011,,,false,2016-12-04 03:09:29 AM,
3311,Columbia St & Kane St,15,21,40.68763155,-74.0016256,In Service,1,5,Columbia St & Kane St,,,11201,,,false,2016-12-04 03:10:22 AM,
3312,1 Ave & E 94 St,3,39,40.7817212,-73.94594,In Service,1,31,1 Ave & E 94 St,,,10128,,,false,2016-12-04 03:09:01 AM,
3313,6 Ave & 12 St,19,29,40.6663181,-73.9854617,In Service,1,9,6 Ave & 12 St,,,10011,,,false,2016-12-04 03:09:08 AM,
3314,W 95 St & Broadway,29,32,40.7937704,-73.971888,In Service,1,3,W 95 St & Broadway,,,10025,,,false,2016-12-04 03:07:21 AM,
3315,Henry St & Degraw St,13,23,40.6847514,-73.99917254,In Service,1,10,Henry St & Degraw St,,,11231,,,false,2016-12-04 03:06:42 AM,
3316,W 104 St & Amsterdam Ave,41,47,40.7989937,-73.9662173778,In Service,1,6,W 104 St & Amsterdam Ave,,,10025,,,false,2016-12-04 03:06:39 AM,
3317,10 St & 5 Ave,20,24,40.6686273,-73.98700053,In Service,1,3,10 St & 5 Ave,,,10011,,,false,2016-12-04 03:10:02 AM,
3318,Coming Soon: 2 Ave & E 96 St,0,0,40.7839636,-73.9471673,Not In Service,3,0,Coming Soon: 2 Ave & E 96 St,,,10128,,,false,1969-12-31 07:00:00 PM,
3319,14 St & 5 Ave,12,18,40.666287,-73.98895053,In Service,1,5,14 St & 5 Ave,,,10011,,,false,2016-12-04 03:08:53 AM,
3320,Central Park West & W 100 St,24,31,40.793393,-73.9635556,In Service,1,7,Central Park West & W 100 St,,,10025,,,false,2016-12-04 03:08:58 AM,
3321,Clinton St & Union St,23,25,40.6831164,-73.99785267,In Service,1,2,Clinton St & Union St,,,11231,,,false,2016-12-04 03:06:46 AM,
3322,12 St & 4 Ave,22,25,40.668603,-73.9904394,In Service,1,3,12 St & 4 Ave,,,10003,,,false,2016-12-04 03:06:44 AM,
3323,W 106 St & Central Park West,40,59,40.7981856,-73.9605909006,In Service,1,19,W 106 St & Central Park West,,,10025,,,false,2016-12-04 03:06:42 AM,
3324,3 Ave & 14 St,8,25,40.6685455,-73.99333264,In Service,1,17,3 Ave & 14 St,,,10003,,,false,2016-12-04 03:09:24 AM,
3325,E 95 St & 3 Ave,18,31,40.7849032,-73.950503,In Service,1,13,E 95 St & 3 Ave,,,10128,,,false,2016-12-04 03:10:13 AM,
3326,Clinton St & Centre St,20,21,40.67434,-74.00194698,In Service,1,0,Clinton St & Centre St,,,11231,,,false,2016-12-04 03:10:23 AM,
3327,3 Ave & E 100 St,9,27,40.7877214,-73.94728331,In Service,1,17,3 Ave & E 100 St,,,10029,,,false,2016-12-04 03:08:17 AM,
3328,W 100 St & Manhattan Ave,32,39,40.795,-73.9645,In Service,1,6,W 100 St & Manhattan Ave,,,10025,,,false,2016-12-04 03:08:34 AM,
3329,Degraw St & Smith St,21,27,40.6829151,-73.99318208,In Service,1,5,Degraw St & Smith St,,,11231,,,false,2016-12-04 03:09:15 AM,
3330,Henry St & Bay St,12,19,40.6725058,-74.00494695,In Service,1,6,Henry St & Bay St,,,11231,,,false,2016-12-04 03:08:15 AM,
3331,Riverside Dr & W 104 St,35,39,40.8013434,-73.9711457439,In Service,1,4,Riverside Dr & W 104 St,,,10025,,,false,2016-12-04 03:06:58 AM,
3332,Degraw St & Hoyt St,13,19,40.681990442707,-73.990790247917,In Service,1,5,Degraw St & Hoyt St,,,11231,,,false,2016-12-04 03:10:01 AM,
3333,Columbia St & Lorraine St,3,21,40.6747055,-74.0075572,In Service,1,17,Columbia St & Lorraine St,,,11231,,,false,2016-12-04 03:08:54 AM,
3335,Union St & 4 Ave,14,28,40.6772744,-73.98282002,In Service,1,14,Union St & 4 Ave,,,11215,,,false,2016-12-04 03:09:02 AM,
3336,E 97 St & Madison Ave,34,41,40.787801,-73.953559,In Service,1,7,E 97 St & Madison Ave,,,10029,,,false,2016-12-04 03:07:42 AM,
3337,Coming Soon: Beard St & Otsego St,0,0,40.672415,-74.011802,Not In Service,3,0,Coming Soon: Beard St & Otsego St,,,11231,,,false,1969-12-31 07:00:00 PM,
3338,2 Ave & E 99 St,8,31,40.7862586,-73.94552579,In Service,1,23,2 Ave & E 99 St,,,10029,,,false,2016-12-04 03:07:35 AM,
3339,Berkeley Pl & 6 Ave,8,23,40.6765304,-73.97846879,In Service,1,14,Berkeley Pl & 6 Ave,,,11217,,,false,2016-12-04 03:08:04 AM,
3340,Wolcott St & Dwight St,3,21,40.6753274,-74.0100698,In Service,1,18,Wolcott St & Dwight St,,,11231,,,false,2016-12-04 03:06:36 AM,
3341,Central Park West & W 102 St,54,59,40.795346,-73.96186,In Service,1,5,Central Park West & W 102 St,,,10025,,,false,2016-12-04 03:10:13 AM,
3342,Pioneer St & Richards St,0,23,40.6777748,-74.0094613,In Service,1,23,Pioneer St & Richards St,,,11231,,,false,2016-12-04 03:08:38 AM,
3343,W 107 St & Columbus Ave,15,23,40.7997568,-73.9621128676,In Service,1,8,W 107 St & Columbus Ave,,,10025,,,false,2016-12-04 03:07:12 AM,
3344,Pioneer St & Van Brunt St,11,19,40.679043,-74.011169,In Service,1,8,Pioneer St & Van Brunt St,,,11231,,,false,2016-12-04 03:09:34 AM,
3345,Madison Ave & E 99 St,26,35,40.789485415532,-73.952429294586,In Service,1,9,Madison Ave & E 99 St,,,10029,,,false,2016-12-04 03:10:06 AM,
3346,Berkeley Pl & 7 Ave,23,29,40.67514683871,-73.975232094526,In Service,1,6,Berkeley Pl & 7 Ave,,,11217,,,false,2016-12-04 03:07:09 AM,
3347,Van Brunt St & Wolcott St,1,21,40.6773429,-74.01275056,In Service,1,18,Van Brunt St & Wolcott St,,,11231,,,false,2016-12-04 03:08:41 AM,
3348,Coffey St & Conover St,1,15,40.677236,-74.015665,In Service,1,14,Coffey St & Conover St,,,11231,,,false,2016-12-04 03:08:45 AM,
3349,Grand Army Plaza & Plaza St West,24,30,40.6729679,-73.97087984,In Service,1,4,Grand Army Plaza & Plaza St West,,,11238,,,false,2016-12-04 03:09:04 AM,
3350,W 100 St & Broadway,33,39,40.7973721,-73.97041192,In Service,1,6,W 100 St & Broadway,,,10025,,,false,2016-12-04 03:10:18 AM,
3351,E 102 St & 1 Ave,1,25,40.7869946,-73.94164802,In Service,1,24,E 102 St & 1 Ave,,,10029,,,false,2016-12-04 03:09:05 AM,
3352,Coming Soon: Sigourney St & Columbia St,0,0,40.672672434109,-74.008795246482,Not In Service,3,0,Coming Soon: Sigourney St & Columbia St,,,11231,,,false,1969-12-31 07:00:00 PM,
3353,Reed St & Van Brunt St,2,24,40.6747844,-74.01612847,In Service,1,22,Reed St & Van Brunt St,,,11231,,,false,2016-12-04 03:10:04 AM,
3354,3 St & Prospect Park West,26,31,40.668132,-73.97363831,In Service,1,4,3 St & Prospect Park West,,,11215,,,false,2016-12-04 03:08:10 AM,
3355,E 66 St & Madison Ave,17,25,40.768008893059,-73.968452811241,In Service,1,8,E 66 St & Madison Ave,,,10065,,,false,2016-12-04 03:09:43 AM,
3356,Amsterdam Ave & W 66 St,2,21,40.7746671,-73.98470567,In Service,1,19,Amsterdam Ave & W 66 St,,,10023,,,false,2016-12-04 03:09:26 AM,
3357,W 106 St & Amsterdam Ave,28,35,40.8008363,-73.9664492472,In Service,1,7,W 106 St & Amsterdam Ave,,,10025,,,false,2016-12-04 03:07:30 AM,
3358,Garfield Pl & 8 Ave,20,25,40.6711978,-73.97484126,In Service,1,5,Garfield Pl & 8 Ave,,,11215,,,false,2016-12-04 03:10:25 AM,
3359,E 68 St & Madison Ave,16,35,40.7691572,-73.96703464,In Service,1,19,E 68 St & Madison Ave,,,10065,,,false,2016-12-04 03:08:07 AM,
3360,Amsterdam Ave & W 79 St,22,25,40.7829391,-73.9786517,In Service,1,3,Amsterdam Ave & W 79 St,,,10024,,,false,2016-12-04 03:08:22 AM,
3361,Carroll St & 6 Ave,16,23,40.6740886,-73.9787282,In Service,1,5,Carroll St & 6 Ave,,,11215,,,false,2016-12-04 03:09:49 AM,
3362,Madison Ave & E 82 St,19,34,40.7781314,-73.96069399,In Service,1,14,Madison Ave & E 82 St,,,10028,,,false,2016-12-04 03:07:38 AM,
3363,E 102 St & Park Ave,19,33,40.7904828,-73.95033068,In Service,1,14,E 102 St & Park Ave,,,10029,,,false,2016-12-04 03:06:55 AM,
3364,Carroll St & 5 Ave,9,27,40.6751622,-73.9814832,In Service,1,18,Carroll St & 5 Ave,,,11215,,,false,2016-12-04 03:07:35 AM,
3366,West End Ave & W 107 St,14,19,40.8021174,-73.9681805305,In Service,1,5,West End Ave & W 107 St,,,10025,,,false,2016-12-04 03:07:16 AM,
3367,5 Ave & E 103 St,36,39,40.7922553,-73.95249933,In Service,1,3,5 Ave & E 103 St,,,10029,,,false,2016-12-04 03:06:51 AM,
3368,5 Ave & 3 St,20,30,40.6728155,-73.98352355,In Service,1,7,5 Ave & 3 St,,,11215,,,false,2016-12-04 03:07:19 AM,
3369,Coming Soon: 83 St & East End Ave,0,0,40.7730159,-73.94637823,Not In Service,3,0,Coming Soon: 83 St & East End Ave,,,10028,,,false,1969-12-31 07:00:00 PM,
3370,78 St & 2 Ave,18,25,40.7727966,-73.95577801,In Service,1,7,78 St & 2 Ave,,,10075,,,false,2016-12-04 03:10:21 AM,
3371,Coming Soon: 4 Ave & 2 Street,0,0,40.674613422476,-73.985011428595,Not In Service,3,0,Coming Soon: 4 Ave & 2 Street,,,11215,,,false,1969-12-31 07:00:00 PM,
3372,E 74 St & 1 Ave,14,39,40.7689738,-73.95482273,In Service,1,24,E 74 St & 1 Ave,,,10021,,,false,2016-12-04 03:07:51 AM,
3373,3 St & 3 Ave,8,27,40.6750705,-73.98775226,In Service,1,16,3 St & 3 Ave,,,11215,,,false,2016-12-04 03:10:28 AM,
3374,Central Park North & Adam Clayton Powell Blvd,5,36,40.799484,-73.955613,In Service,1,31,Central Park North & Adam Clayton Powell Blvd,,,10026,,,false,2016-12-04 03:07:34 AM,
3375,3 Ave & E 72 St,29,35,40.7699426,-73.96060712,In Service,1,6,3 Ave & E 72 St,,,10021,,,false,2016-12-04 03:08:12 AM,
3376,E 65 St & 2 Ave,27,39,40.764718519443,-73.962220698595,In Service,1,12,E 65 St & 2 Ave,,,10065,,,false,2016-12-04 03:09:56 AM,
3377,Carroll St & Bond St,18,25,40.6786115,-73.99037292,In Service,1,7,Carroll St & Bond St,,,11231,,,false,2016-12-04 03:08:29 AM,
3378,E 76 St & Park Ave,19,28,40.773763,-73.96222088,In Service,1,9,E 76 St & Park Ave,,,10075,,,false,2016-12-04 03:08:16 AM,
3379,E 103 St & Lexington Ave,7,35,40.7903051,-73.94755757,In Service,1,28,E 103 St & Lexington Ave,,,10029,,,false,2016-12-04 03:07:11 AM,
3381,3 St & Hoyt St,13,21,40.6777287,-73.99364123,In Service,1,6,3 St & Hoyt St,,,11231,,,false,2016-12-04 03:07:20 AM,
3382,Carroll St & Smith St,29,31,40.680611,-73.99475825,In Service,1,0,Carroll St & Smith St,,,11231,,,false,2016-12-04 03:07:28 AM,
3383,Cathedral Pkwy & Broadway,21,25,40.804213,-73.96699104,In Service,1,4,Cathedral Pkwy & Broadway,,,10025,,,false,2016-12-04 03:07:58 AM,
3384,Smith St & 3 St,24,25,40.6787242,-73.99599099,In Service,1,0,Smith St & 3 St,,,11231,,,false,2016-12-04 03:07:17 AM,
3386,1 Pl & Clinton St,23,27,40.6809591,-73.99905709,In Service,1,4,1 Pl & Clinton St,,,11231,,,false,2016-12-04 03:07:40 AM,
3387,E 106 St & Madison Ave,3,25,40.7934337,-73.94945003,In Service,1,22,E 106 St & Madison Ave,,,10029,,,false,2016-12-04 03:09:40 AM,
3388,President St & Henry St,20,25,40.6828003,-73.99990419,In Service,1,5,President St & Henry St,,,11231,,,false,2016-12-04 03:08:02 AM,
3389,Carroll St & Columbia St,25,28,40.6830456,-74.00348559,In Service,1,3,Carroll St & Columbia St,,,11231,,,false,2016-12-04 03:08:35 AM,
3390,E 109 St & 3 Ave,12,24,40.79329668,-73.9432083,In Service,1,12,E 109 St & 3 Ave,,,10029,,,false,2016-12-04 03:07:30 AM,
3391,E 106 St & 1 Ave,8,25,40.7892529,-73.93956237,In Service,1,15,E 106 St & 1 Ave,,,10029,,,false,2016-12-04 03:07:51 AM,
3392,Commerce St & Van Brunt St,7,19,40.6812117,-74.00860912,In Service,1,12,Commerce St & Van Brunt St,,,11231,,,false,2016-12-04 03:08:03 AM,
3393,Richards St & Delavan St,2,19,40.6794327,-74.00785041,In Service,1,17,Richards St & Delavan St,,,11231,,,false,2016-12-04 03:06:55 AM,
3394,Columbia St & W 9 St,3,21,40.6769993,-74.00647134,In Service,1,18,Columbia St & W 9 St,,,11231,,,false,2016-12-04 03:09:43 AM,
3395,Henry St & W 9 St,1,19,40.6763744,-74.00324957,In Service,1,18,Henry St & W 9 St,,,11231,,,false,2016-12-04 03:10:07 AM,
3396,Clinton St & 4 Place,22,25,40.6783563,-74.00014502,In Service,1,3,Clinton St & 4 Place,,,11231,,,false,2016-12-04 03:10:13 AM,
3397,Court St & Nelson St,14,25,40.6763947,-73.99869893,In Service,1,11,Court St & Nelson St,,,11231,,,false,2016-12-04 03:08:29 AM,
3398,Smith St & 9 St,1,23,40.6746957,-73.99785768,In Service,1,22,Smith St & 9 St,,,11231,,,false,2016-12-04 03:08:28 AM,
3399,7 St & 3 Ave,1,21,40.672602981501,-73.98983001709,In Service,1,19,7 St & 3 Ave,,,10003,,,false,2016-12-04 03:09:25 AM,
3400,E 110 St & Madison Ave,9,24,40.7961535,-73.94782145,In Service,1,15,E 110 St & Madison Ave,,,10029,,,false,2016-12-04 03:06:52 AM,
3401,2 Ave & 9 St,9,19,40.6724811,-73.99331394,In Service,1,10,2 Ave & 9 St,,,10003,,,false,2016-12-04 03:08:01 AM,
3402,Court St & State St,16,23,40.6902375,-73.99203074,In Service,1,6,Court St & State St,,,11201,,,false,2016-12-04 03:08:11 AM,
3403,4 Ave & 9 St,26,31,40.6705135,-73.98876585,In Service,1,5,4 Ave & 9 St,,,10003,,,false,2016-12-04 03:08:37 AM,
3404,7 St & 5 Ave,22,27,40.6704922,-73.98541675,In Service,1,4,7 St & 5 Ave,,,11215,,,false,2016-12-04 03:09:59 AM,
3405,5 St & 6 Ave,3,3,40.6704836,-73.98208968,Not In Service,3,0,5 St & 6 Ave,,,11215,,,false,2016-11-16 09:54:33 AM,
3407,Union St & Nevins St,14,15,40.679097997217,-73.987654745579,In Service,1,1,Union St & Nevins St,,,11215,,,false,2016-12-04 03:06:44 AM,
3408,Congress St & Clinton St,27,27,40.6881529,-73.99520919,In Service,1,0,Congress St & Clinton St,,,11201,,,false,2016-12-04 03:07:30 AM,
3409,Bergen St & Smith St,31,35,40.6867443,-73.99063168,In Service,1,1,Bergen St & Smith St,,,11201,,,false,2016-12-04 03:08:12 AM,
3410,Dean St & Hoyt St,30,31,40.6864442,-73.98759104,In Service,1,1,Dean St & Hoyt St,,,11217,,,false,2016-12-04 03:08:25 AM,
3411,Bond St & Bergen St,22,27,40.6849668,-73.98620772,In Service,1,5,Bond St & Bergen St,,,11217,,,false,2016-12-04 03:09:30 AM,
3412,Pacific St & Nevins St,7,15,40.6853761,-73.98302136,In Service,1,8,Pacific St & Nevins St,,,11217,,,false,2016-12-04 03:09:21 AM,
3413,Wyckoff St & 3 Ave,11,22,40.6827549,-73.98258555,In Service,1,11,Wyckoff St & 3 Ave,,,11217,,,false,2016-12-04 03:07:26 AM,
3414,Bergen St & Flatbush Ave,19,33,40.680944723477,-73.975673317909,In Service,1,13,Bergen St & Flatbush Ave,,,11217,,,false,2016-12-04 03:07:28 AM,
3415,Prospect Pl & 6 Ave,24,25,40.6793307,-73.97519523,In Service,1,0,Prospect Pl & 6 Ave,,,11217,,,false,2016-12-04 03:07:23 AM,
3416,7 Ave & Park Pl,15,17,40.6776147,-73.97324283,In Service,1,2,7 Ave & Park Pl,,,11217,,,false,2016-12-04 03:08:55 AM,
3417,Baltic St & 5 Ave,23,27,40.6795766,-73.97854971,In Service,1,3,Baltic St & 5 Ave,,,11217,,,false,2016-12-04 03:06:59 AM,
3418,Plaza St West & Flatbush Ave,29,33,40.6750207,-73.97111473,In Service,1,4,Plaza St West & Flatbush Ave,,,11217,,,false,2016-12-04 03:08:30 AM,
3419,Douglass St & 4 Ave,12,27,40.6792788,-73.98154004,In Service,1,15,Douglass St & 4 Ave,,,11217,,,false,2016-12-04 03:07:55 AM,
3420,Douglass St & 3 Ave,8,21,40.6802133,-73.98432695,In Service,1,13,Douglass St & 3 Ave,,,11217,,,false,2016-12-04 03:06:57 AM,
3421,Hoyt St & Warren St,22,23,40.6843549,-73.98901629,In Service,1,1,Hoyt St & Warren St,,,11217,,,false,2016-12-04 03:07:49 AM,
3422,Columbia St & Degraw St,18,21,40.6859296,-74.00242364,In Service,1,3,Columbia St & Degraw St,,,11231,,,false,2016-12-04 03:10:21 AM,
3423,West Drive & Prospect Park West,27,29,40.661063371901,-73.979452550411,In Service,1,1,West Drive & Prospect Park West,,,11215,,,false,2016-12-04 03:10:21 AM,
3424,E 106 St & Lexington Ave,13,27,40.791976,-73.945993,In Service,1,14,E 106 St & Lexington Ave,,,10029,,,false,2016-12-04 03:07:26 AM,
3425,2 Ave  & E 104 St,0,33,40.7892105,-73.94370784,In Service,1,33,2 Ave  & E 104 St,,,10029,,,false,2016-12-04 03:06:46 AM,
3427,Lafayette St & Jersey St,15,40,40.724305272503,-73.99600982666,In Service,1,24,Lafayette St & Jersey St,,,10012,,,false,2016-12-04 03:10:24 AM,
3428,8 Ave & W 16 St,1,25,40.740983,-74.001702,In Service,1,23,8 Ave & W 16 St,,,10011,,,false,2016-12-04 03:09:22 AM,
3429,Hanson Pl & Ashland Pl,31,39,40.685068073082,-73.977907598019,In Service,1,7,Hanson Pl & Ashland Pl,,,11217,,,false,2016-12-04 03:07:53 AM,
3430,Richardson St & N Henry St,7,19,40.719078911796,-73.94223690033,In Service,1,12,Richardson St & N Henry St,,,11222,,,false,2016-12-04 03:07:04 AM,
3431,E 35 St & 3 Ave,24,26,40.746524,-73.977885,In Service,1,2,E 35 St & 3 Ave,,,10016,,,false,2016-12-04 03:07:18 AM,
3434,W 88 St & West End Ave,28,35,40.790254173304,-73.977183401585,In Service,1,7,W 88 St & West End Ave,,,10024,,,false,2016-12-04 03:08:56 AM,
3435,Grand St & Elizabeth St,15,45,40.718822,-73.99596,In Service,1,30,Grand St & Elizabeth St,,,10013,,,false,2016-12-04 03:08:13 AM,
3436,Greenwich St & Hubert St,31,31,40.721319,-74.010065,In Service,1,0,Greenwich St & Hubert St,,,10013,,,false,2016-12-04 03:10:25 AM,
3437,Riverside Dr & W 91 St,0,0,40.793134809867,-73.977003693581,Not In Service,3,0,Riverside Dr & W 91 St,,,10025,,,false,1969-12-31 07:00:00 PM,
3438,E 76 St & 3 Ave,20,31,40.772248537722,-73.958421349525,In Service,1,11,E 76 St & 3 Ave,,,10075,,,false,2016-12-04 03:08:49 AM,
3440,Fulton St & Adams St,40,43,40.692418292578,-73.989494740963,In Service,1,3,Fulton St & Adams St,,,11201,,,false,2016-12-04 03:07:23 AM,
